{"version": 0.6, "generator": "Overpass API 0.7.62.8 e802775f", "osm3s": {"timestamp_osm_base": "2025-12-09T14:19:14Z", "copyright": "The data included in this document is from www.openstreetmap.org. The data is made available under ODbL."}, "elements": [{"type": "node", "id": 6840179199, "lat": 17.5248067, "lon": 80.0001799}, {"type": "node", "id": 6840179200, "lat": 17.5249671, "lon": 80.0002377}, {"type": "node", "id": 6840179201, "lat": 17.5250055, "lon": 80.0001205}, {"type": "node", "id": 6840179202, "lat": 17.524845, "lon": 80.0000628}, {"type": "node", "id": 6840179559, "lat": 17.5249393, "lon": 80.0001664, "tags": {"addr:district": "Mahbubabad", "addr:full": "Kuravi", "addr:postcode": "506105", "addr:state": "Telangana", "amenity": "hospital", "name": "Srinivas Hospital", "operator:type": "private", "source": "OpenGovernmentData"}}, {"type": "node", "id": 6840179560, "lat": 17.5250301, "lon": 79.9999969, "tags": {"addr:district": "Mahbubabad", "addr:full": "Kuravi", "addr:postcode": "506105", "addr:state": "Telangana", "amenity": "hospital", "name": "Dr. Prathap Hospital", "operator:type": "private", "source": "OpenGovernmentData"}}, {"type": "node", "id": 11993484666, "lat": 17.547615, "lon": 80.0037038, "tags": {"amenity": "hospital", "healthcare": "hospital"}}, {"type": "way", "id": 730155900, "nodes": [6840179202, 6840179201, 6840179200, 6840179199, 6840179202], "tags": {"amenity": "hospital", "healthcare": "hospital"}}]}