{"version": 0.6, "generator": "Overpass API 0.7.62.8 e802775f", "osm3s": {"timestamp_osm_base": "2025-12-09T14:39:45Z", "copyright": "The data included in this document is from www.openstreetmap.org. The data is made available under ODbL."}, "elements": [{"type": "node", "id": 5077099892, "lat": 17.6614837, "lon": 83.1447721}, {"type": "node", "id": 5077099893, "lat": 17.6642992, "lon": 83.142864}, {"type": "node", "id": 5077099894, "lat": 17.6645855, "lon": 83.1431537}, {"type": "node", "id": 5077099895, "lat": 17.6648206, "lon": 83.1437116}, {"type": "node", "id": 5077099896, "lat": 17.6648033, "lon": 83.1442401}, {"type": "node", "id": 5077099897, "lat": 17.6644934, "lon": 83.14498}, {"type": "node", "id": 5077099898, "lat": 17.6639278, "lon": 83.1453297}, {"type": "node", "id": 5077099899, "lat": 17.6633622, "lon": 83.1454923}, {"type": "node", "id": 5077099900, "lat": 17.6627037, "lon": 83.1456305}, {"type": "node", "id": 5077099901, "lat": 17.6622311, "lon": 83.1455167}, {"type": "node", "id": 5077099902, "lat": 17.6616423, "lon": 83.1451264}, {"type": "node", "id": 5077099903, "lat": 17.6614046, "lon": 83.1444069}, {"type": "node", "id": 5077099904, "lat": 17.6614199, "lon": 83.1439563}, {"type": "node", "id": 5077099905, "lat": 17.6615477, "lon": 83.1436505}, {"type": "node", "id": 5077099906, "lat": 17.6617521, "lon": 83.1433018}, {"type": "node", "id": 5077099907, "lat": 17.6621815, "lon": 83.1429853}, {"type": "node", "id": 5077099908, "lat": 17.6628051, "lon": 83.1428029}, {"type": "node", "id": 5077099909, "lat": 17.6632601, "lon": 83.1426795}, {"type": "node", "id": 5077099910, "lat": 17.6635565, "lon": 83.1426527}, {"type": "node", "id": 5077099911, "lat": 17.6638581, "lon": 83.1426742}, {"type": "node", "id": 5077099912, "lat": 17.6640217, "lon": 83.1427385}, {"type": "node", "id": 6758813629, "lat": 17.6825514, "lon": 83.2063977, "tags": {"addr:district": "Visakhapatnam", "addr:full": "Kailashnagar , Kanithi Road, Gajuwaka", "addr:postcode": "530026", "addr:state": "Andhra Pradesh", "amenity": "hospital", "name": "Gowtami Hospital", "source": "OpenGovernmentData"}}, {"type": "node", "id": 6768715568, "lat": 17.6853215, "lon": 83.208107, "tags": {"addr:district": "Visakhapatnam", "addr:full": "Gajuwaka", "addr:postcode": "530026", "addr:state": "Andhra Pradesh", "amenity": "hospital", "contact:phone": "2517167", "name": "Susruta Hospital", "source": "OpenGovernmentData"}}, {"type": "node", "id": 6768741999, "lat": 17.6824479, "lon": 83.1970797, "tags": {"addr:district": "Visakhapatnam", "addr:full": "26-16-7,Chaitanya nagar,Gajuwaka,Visakhaptanam", "addr:postcode": "530026", "addr:state": "Andhra Pradesh", "amenity": "hospital", "contact:mobile": "9348423777", "contact:phone": "0891-2764411", "email": "rkhospital.gajuwaka@gmail.com", "fax": "0891-2517699", "name": "R K Hospital", "opening_hours": "24/7", "source": "OpenGovernmentData", "website": "https://www.rkhospital.co.in/"}}, {"type": "node", "id": 6770857209, "lat": 17.6840514, "lon": 83.1985898, "tags": {"addr:district": "Visakhapatnam", "addr:full": "D.No: 6-60-8/9, Sramikanagar, Gajuwaka", "addr:postcode": "530026", "addr:state": "Andhra Pradesh", "amenity": "hospital", "name": "Sujatha Hospital", "opening_hours": "24/7", "source": "OpenGovernmentData"}}, {"type": "node", "id": 6773613228, "lat": 17.6867743, "lon": 83.203619, "tags": {"addr:district": "Visakhapatnam", "addr:full": "D.No: 7-15-12, Old Gajuwaka", "addr:postcode": "530026", "addr:state": "Andhra Pradesh", "amenity": "hospital", "name": "Padmaja Hospital - Gajuwaka", "opening_hours": "24/7", "source": "OpenGovernmentData"}}, {"type": "node", "id": 7787647585, "lat": 17.687897, "lon": 83.2053903, "tags": {"addr:district": "Visakhapatnam", "addr:full": "Gajuwaka", "addr:postcode": "530011", "addr:state": "Andhra Pradesh", "amenity": "hospital", "name": "Sunrise Childern Hospital", "source": "Local Knowledge"}}, {"type": "node", "id": 7787647586, "lat": 17.6843101, "lon": 83.193854, "tags": {"addr:district": "Visakhapatnam", "addr:full": "Chaitanya Nagar, Gajuwaka", "addr:postcode": "530026", "addr:state": "Andhra Pradesh", "amenity": "hospital", "name": "Sri Krishna Orthopaedic Hospital", "source": "Local Knowledge"}}, {"type": "node", "id": 7787647592, "lat": 17.6829789, "lon": 83.1975029, "tags": {"addr:district": "Visakhapatnam", "addr:full": "Chaitanya Nagar, Gajuwaka", "addr:postcode": "530044", "addr:state": "Andhra Pradesh", "amenity": "hospital", "name": "Sri Lakhmi ENT Hospital", "source": "Local Knowledge"}}, {"type": "node", "id": 7787647593, "lat": 17.702135, "lon": 83.199526, "tags": {"addr:district": "Visakhapatnam", "addr:postcode": "530012", "addr:state": "Andhra Pradesh", "amenity": "hospital", "name": "BHEL Hospital", "source": "Local Knowledge"}}, {"type": "node", "id": 7787647594, "lat": 17.6846529, "lon": 83.2016314, "tags": {"addr:district": "Visakhapatnam", "addr:postcode": "530026", "addr:state": "Andhra Pradesh", "amenity": "hospital", "name": "Visakha Child Care Centre", "source": "Local Knowledge"}}, {"type": "node", "id": 7787647604, "lat": 17.6852466, "lon": 83.2053196, "tags": {"addr:district": "Visakhapatnam", "addr:full": "Gajuwaka", "addr:postcode": "530026", "addr:state": "Andhra Pradesh", "amenity": "hospital", "name": "City Hospital Ortho & Specialities", "source": "Local Knowledge"}}, {"type": "node", "id": 7787647608, "lat": 17.7141817, "lon": 83.1956548, "tags": {"addr:district": "Visakhapatnam", "addr:full": "Sheela Nagar", "addr:postcode": "530026", "addr:state": "Andhra Pradesh", "amenity": "hospital", "name": "KIMS ICON Hospitals", "source": "Local Knowledge"}}, {"type": "node", "id": 7787647612, "lat": 17.6854195, "lon": 83.2078579, "tags": {"addr:district": "Visakhapatnam", "addr:full": "Kailash Nagar", "addr:postcode": "530026", "addr:state": "Andhra Pradesh", "amenity": "hospital", "name": "Sri Lakshmi Children Hospital", "source": "Local Knowledge"}}, {"type": "node", "id": 7787647614, "lat": 17.6827868, "lon": 83.1989654, "tags": {"addr:district": "Visakhapatnam", "addr:full": "Chaitanya Nagar, Gajuwaka", "addr:postcode": "530026", "addr:state": "Andhra Pradesh", "amenity": "hospital", "name": "Ankitha Hospital", "source": "Local Knowledge"}}, {"type": "node", "id": 7787647619, "lat": 17.6844753, "lon": 83.2100702, "tags": {"addr:district": "Visakhapatnam", "addr:full": "Kailash Nagar, Gajuwaka", "addr:postcode": "530026", "addr:state": "Andhra Pradesh", "amenity": "hospital", "name": "Pujitha Hospital", "source": "Local Knowledge"}}, {"type": "node", "id": 7787647623, "lat": 17.6872165, "lon": 83.2049981, "tags": {"addr:district": "Visakhapatnam", "addr:full": "Indira Colony", "addr:postcode": "530026", "addr:state": "Andhra Pradesh", "amenity": "hospital", "name": "Navaratnam - Kesava Rao Charitable Health Centre", "source": "Local Knowledge"}}, {"type": "node", "id": 7787647632, "lat": 17.6869092, "lon": 83.2079845, "tags": {"addr:district": "Visakhapatnam", "addr:full": "Gandhinagar, Gajuwaka", "addr:postcode": "530026", "addr:state": "Andhra Pradesh", "amenity": "hospital", "name": "Mamata Hospital", "source": "Local Knowledge"}}, {"type": "node", "id": 7787647638, "lat": 17.6877091, "lon": 83.205361, "tags": {"addr:district": "Visakhapatnam", "addr:full": "BHVP Road, Gajuwaka", "addr:postcode": "530026", "addr:state": "Andhra Pradesh", "amenity": "hospital", "name": "Lata Hospital", "source": "Local Knowledge"}}, {"type": "node", "id": 7787647639, "lat": 17.6865547, "lon": 83.2073838, "tags": {"addr:district": "Visakhapatnam", "addr:full": "Gajuwaka", "addr:postcode": "530026", "addr:state": "Andhra Pradesh", "amenity": "hospital", "name": "Janani Hospital", "source": "Local Knowledge"}}, {"type": "node", "id": 7787647647, "lat": 17.6849028, "lon": 83.2092812, "tags": {"addr:district": "Visakhapatnam", "addr:full": "Kailasa Nagar, Gajuwaka", "addr:postcode": "530026", "addr:state": "Andhra Pradesh", "amenity": "hospital", "name": "Sri Surya Hospital", "source": "Local Knowledge"}}, {"type": "node", "id": 7787647648, "lat": 17.6863384, "lon": 83.2101897, "tags": {"addr:district": "Visakhapatnam", "addr:full": "Gajuwaka", "addr:postcode": "530026", "addr:state": "Andhra Pradesh", "amenity": "hospital", "name": "Harshitha Hospital", "source": "Local Knowledge"}}, {"type": "node", "id": 7787647655, "lat": 17.6795765, "lon": 83.2055093, "tags": {"addr:district": "Visakhapatnam", "addr:full": "Vinayaka Nagar, Gonthinavanipalem, Pedagantyada", "addr:postcode": "530044", "addr:state": "Andhra Pradesh", "amenity": "hospital", "name": "Harini Hospital", "source": "Local Knowledge"}}, {"type": "node", "id": 7787647671, "lat": 17.6852715, "lon": 83.2046951, "tags": {"addr:district": "Visakhapatnam", "addr:full": "Meher Nagar", "addr:postcode": "530026", "addr:state": "Andhra Pradesh", "amenity": "hospital", "name": "Muddu Krishna Children Hospital", "source": "Local Knowledge"}}, {"type": "way", "id": 521013578, "nodes": [5077099893, 5077099894, 5077099895, 5077099896, 5077099897, 5077099898, 5077099899, 5077099900, 5077099901, 5077099902, 5077099892, 5077099903, 5077099904, 5077099905, 5077099906, 5077099907, 5077099908, 5077099909, 5077099910, 5077099911, 5077099912, 5077099893], "tags": {"addr:city": "Visakhapatnam", "addr:district": "Visakhapatnam", "addr:full": "Visakhapatnam Steel Plant", "addr:postcode": "530032", "addr:state": "Andhra Pradesh", "amenity": "hospital", "emergency": "yes", "healthcare": "hospital", "name": "Visakhapatnam Steel General Hospital", "opening_hours": "24/7", "operator": "Visakhapatnam Steel Plant", "source": "OpenGovernmentData"}}]}