{"version": 0.6, "generator": "Overpass API 0.7.62.8 e802775f", "osm3s": {"timestamp_osm_base": "2025-12-09T14:24:22Z", "copyright": "The data included in this document is from www.openstreetmap.org. The data is made available under ODbL."}, "elements": [{"type": "node", "id": 2012808898, "lat": 16.9936982, "lon": 81.77651, "tags": {"addr:city": "Rajahmundry", "addr:district": "East Godavari", "addr:full": "36-26-10, Behind Kotipalli Bustand Main Road Innespeta Rajahmundry", "addr:housenumber": "36-26-10", "addr:postcode": "533101", "addr:state": "Andhra Pradesh", "addr:street": "main Road - Innespeta", "amenity": "hospital", "contact:phone": "086399 15338,0883 242 5049", "contact:website": "https://arunahospital.business.site/", "designation": "General Hospital", "ele": "15", "email": "arunahospital@outlook.com", "emergency": "yes", "healthcare": "hospital", "healthcare:speciality": "general;occupational;geriatrics;clinic;gynaecology;medicine", "internet_access": "yes", "name": "Aruna Hospital", "phone": "+91 8639915338", "source": "OpenGovernmentData;local knowledge;aerial imagery", "wheelchair": "limited"}}, {"type": "node", "id": 2089599680, "lat": 17.0189942, "lon": 81.7756466}, {"type": "node", "id": 2089599687, "lat": 17.0189989, "lon": 81.7757589}, {"type": "node", "id": 2089599766, "lat": 17.0190514, "lon": 81.7757567}, {"type": "node", "id": 2089599770, "lat": 17.0190474, "lon": 81.7756439}, {"type": "node", "id": 2155590443, "lat": 17.0148002, "lon": 81.7811204}, {"type": "node", "id": 2155590450, "lat": 17.0148351, "lon": 81.7810517}, {"type": "node", "id": 2155590453, "lat": 17.014858, "lon": 81.7810671}, {"type": "node", "id": 2155590454, "lat": 17.0148606, "lon": 81.7812159}, {"type": "node", "id": 2155590478, "lat": 17.0149667, "lon": 81.7809113}, {"type": "node", "id": 2155590496, "lat": 17.0151116, "lon": 81.7813801}, {"type": "node", "id": 2155590517, "lat": 17.0152673, "lon": 81.7811176}, {"type": "node", "id": 3076334664, "lat": 16.9789629, "lon": 81.7839492, "tags": {"addr:full": "Alcot Gardens, Rajahmundry.", "amenity": "hospital", "name": "Michel Hospital", "phone": "0883-2422286, 8019727750"}}, {"type": "node", "id": 3076334665, "lat": 16.9792438, "lon": 81.7836834, "tags": {"addr:district": "East Godavari", "addr:full": "Alcot Gardens, Rajahmundry", "addr:postcode": "533101", "addr:state": "Andhra Pradesh", "amenity": "hospital", "name": "Dr.Prasad Skin & Sugar Hospital", "source": "Local Knowledge"}}, {"type": "node", "id": 3076334666, "lat": 16.9796372, "lon": 81.7839251, "tags": {"addr:district": "East Godavari", "addr:full": "Alcot Gardens, Rajahmundry", "addr:postcode": "533101", "addr:state": "Andhra Pradesh", "amenity": "hospital", "description": "Dr.T.Krishnan Raju", "name": "Surya Hospital", "phone": "0883-2420856", "source": "Local Knowledge"}}, {"type": "node", "id": 3076334667, "lat": 16.9852111, "lon": 81.7811752, "tags": {"addr:full": "Opp. Sanitary Inspector Office, Alcot Gardens, Rajahmundry.", "amenity": "hospital", "description": "Municipal Corporation Of Rajahmundry", "name": "Homeopati Dispensary"}}, {"type": "node", "id": 3076334668, "lat": 16.9875104, "lon": 81.7810427, "tags": {"addr:full": "Alcot Gardens, Rajahmundry.", "amenity": "hospital", "name": "Gurunath Memorial Hospital", "phone": "9030530441"}}, {"type": "node", "id": 3076334669, "lat": 16.987684, "lon": 81.7808699, "tags": {"addr:full": "Alcot Gardens, Rajahmundry.", "amenity": "hospital", "description": "Dr.K.Srinivasa Rao", "name": "Sri Sai Ram Hospital"}}, {"type": "node", "id": 3076334670, "lat": 16.9920558, "lon": 81.7758982, "tags": {"addr:full": "T Nagar, Rajahmundry.", "amenity": "hospital", "description": "Dr.R.S.Chalam (Ms, Fics), Dr.R.V.Ravi (Ms, Mch), Dr.N.V.Narasimharao (Ms Ortho), Dr.R.Sindhura Lakshmi (Mbbs,Da)", "name": "Raja Hospitals"}}, {"type": "node", "id": 3076334671, "lat": 16.9921708, "lon": 81.7757661, "tags": {"addr:district": "East Godavari", "addr:full": "H.No: 6-18-3, Kokkondavari Street", "addr:postcode": "533101", "addr:state": "Andhra Pradesh", "amenity": "hospital", "contact:mobile": "8832425646", "description": "Dr.G.Aravind", "fax": "2425646", "name": "Aravindam Orthopaedic and Physiotherapy Centre", "phone": "0883-2425646", "source": "OpenGovernmentData"}}, {"type": "node", "id": 3076334672, "lat": 16.9924705, "lon": 81.7759644, "tags": {"addr:full": "T Nagar, Rajahmundry.", "amenity": "hospital", "description": "Dr.N.Rama Krishna (Ms Ent)", "name": "Sri Ramya Ent Hospital"}}, {"type": "node", "id": 3076334673, "lat": 16.9928224, "lon": 81.7770454, "tags": {"addr:district": "East Godavari", "addr:full": "Main Road,Behind Indian Oil Petrol Pump,Innespeta", "addr:postcode": "533101", "addr:state": "Andhra Pradesh", "amenity": "hospital", "description": "Dr.R.Ramakrishna (Md, Dch)", "name": "Sri Satya Nursing Home", "source": "OpenGovernmentData"}}, {"type": "node", "id": 3076334674, "lat": 16.9933206, "lon": 81.7741381, "tags": {"addr:district": "East Godavari", "addr:full": "6-8-1, Nidamarthi, Randhi Vari Street, Tyagaraja Nagar, Rajahmundry", "addr:postcode": "533101", "addr:state": "Andhra Pradesh", "amenity": "hospital", "description": "Dr.S.Sambashivarao (Ms Do), Dr.S.Ratnamala (Mbbs, Rcgp)", "name": "Vishwanadha Eye and Maternity Hospital", "source": "OpenGovernmentData"}}, {"type": "node", "id": 3076334675, "lat": 16.993323, "lon": 81.7756763, "tags": {"addr:full": "T Nagar, Rajahmundry.", "amenity": "hospital", "description": "Dr.S.Venkataanadam (Mbbs, Do Ortho, Ms Ortho)", "name": "Lakshmi Orthopedic Hospital", "phone": "0883-2428290, 9949137641, 9848118210"}}, {"type": "node", "id": 3076334676, "lat": 16.9935196, "lon": 81.7755253, "tags": {"addr:full": "T Nagar, Rajahmundry.", "amenity": "hospital", "description": "Dr.G.Srinivas, Dr.G.Sri Devi", "name": "Milinium Homeo Pati"}}, {"type": "node", "id": 3076334678, "lat": 16.9938604, "lon": 81.7738491, "tags": {"addr:full": "#6-8-9/1, Opp. Hdfc Bank,Nidamarthi Vari Veedhi, T Nagar, Rajahmundry.", "amenity": "hospital", "description": "Dr.K.Subrahmanyam (Md)", "name": "Sri Sanjivi Hospital"}}, {"type": "node", "id": 3076334679, "lat": 16.9940501, "lon": 81.7761413, "tags": {"addr:full": "Innispeta, Rajahmundry.", "amenity": "hospital", "name": "Kakinada Dr.Basavayya Ayurveda Hospital", "phone": "9848162013"}}, {"type": "node", "id": 3076334680, "lat": 16.9945621, "lon": 81.77304, "tags": {"addr:full": "Beside Municipal Office, Innespeta, Rajahmundry.", "amenity": "hospital", "description": "Dr.V.K.Ch.Raju (Mbbs, Doms)", "name": "Ambika Eye Hospital"}}, {"type": "node", "id": 3076334681, "lat": 16.9946426, "lon": 81.7764695, "tags": {"addr:full": "Innispeta, Rajahmundry.", "amenity": "hospital", "name": "Patanjali Chikistsalayam & Arogya Seva Kendram", "phone": "970493483"}}, {"type": "node", "id": 3076334682, "lat": 16.994747, "lon": 81.7754102, "tags": {"addr:full": "Shyamala Centre, Rajahmundry.", "amenity": "hospital", "description": "Dr.N.Sudarshan Murthy (Monday Only)", "name": "Sudharshan Ayurvedic Hospital", "phone": "9849603366"}}, {"type": "node", "id": 3076334683, "lat": 16.9947588, "lon": 81.772404, "tags": {"addr:full": "T Nagar, Rajahmundry.", "amenity": "hospital", "description": "Dr.S.Rajan (Md,Dch), Dr.S.Padmavathi (Mbbs, Dgo)", "name": "Vamshi Krishna Hospital"}}, {"type": "node", "id": 3076334684, "lat": 16.9948357, "lon": 81.7717596, "tags": {"addr:full": "Near Shiva Temple, T Nagar, Rajahmundry.", "amenity": "hospital", "description": "Dr.Y.Srinivas (Md), Dr.Y.Sunitha (Mbbs, Dgo), Dr.Y.Sanyasirao (Md)", "name": "Srinivasa Hospitals", "phone": "0883-2436030"}}, {"type": "node", "id": 3076334685, "lat": 16.9953264, "lon": 81.7769949, "tags": {"addr:city": "rajahmundry", "addr:district": "East Godavari", "addr:full": "36-10-64, Stadium Road, Innespeta, Rajahmundry", "addr:postcode": "533101", "addr:state": "Andhra Pradesh", "amenity": "hospital", "ele": "10", "healthcare": "hospital", "healthcare:speciality": "family_medicine", "name": "Karunasri Hospital", "operator": "Dr Raju", "operator:type": "private", "phone": "0883-2426690", "source": "Local Knowledge"}}, {"type": "node", "id": 3076334686, "lat": 16.9953686, "lon": 81.7725676, "tags": {"addr:full": "#6-3-11, Kalepalli Vari Veedhi, Innespeta, Rajahmundry.", "amenity": "hospital", "description": "Dr.P.V.Ramana (Bsc, Bhms)", "name": "Aruna Homeo Hospital", "phone": "0883-2436704, 6452836"}}, {"type": "node", "id": 3076334687, "lat": 16.9956227, "lon": 81.8057547, "tags": {"addr:full": "Morampudi, Rajahmundry.", "amenity": "hospital", "name": "People's Hospital"}}, {"type": "node", "id": 3076334688, "lat": 16.9956305, "lon": 81.7713659, "tags": {"addr:full": "Beside Of Kumari Dheater, T Nagar, Rajahmundry.", "amenity": "hospital", "description": "Dr.B.Santha Devi (Mbbs, Pgdic)", "name": "Ashwini Hospital", "phone": "0883-2471085"}}, {"type": "node", "id": 3076334689, "lat": 16.995976, "lon": 81.777822, "tags": {"addr:full": "Innispeta, Rajahmundry.", "amenity": "hospital", "description": "Dr.S.Purushotham (Md)", "name": "Bhavan Hospital", "phone": "0883-6666815"}}, {"type": "node", "id": 3076334690, "lat": 16.9961753, "lon": 81.7720727, "tags": {"addr:full": "Innespeta, Rajahmundry.", "amenity": "hospital", "description": "Dr.V.Trinathrao (Ms) & Dr.V.Kalpana (Mbbs, Dgo)", "name": "Bharat Nursing Home", "phone": "0883-2473389"}}, {"type": "node", "id": 3076334691, "lat": 16.9968616, "lon": 81.7783235, "tags": {"addr:full": "Innespeta, Rajahmundry.", "amenity": "hospital", "description": "Dr.N.Satyanarayana(Dams, Do), Dr.N.Vijaya Lakshmi (Dam)", "name": "Eye Clinic"}}, {"type": "node", "id": 3076334692, "lat": 16.9978645, "lon": 81.7825339, "tags": {"addr:full": "Veerabhadra Nagar, Rajahmundry.", "amenity": "hospital", "description": "Dr.V.Raghu", "name": "Sri Hospital", "phone": "9948845083"}}, {"type": "node", "id": 3076334693, "lat": 16.9979724, "lon": 81.7827967, "tags": {"addr:full": "Veerabhadra Nagar, Rajahmundry.", "amenity": "hospital", "name": "Rammohan Primary Health Centre"}}, {"type": "node", "id": 3076334694, "lat": 16.99817, "lon": 81.7753038, "tags": {"addr:full": "Mangalavarapu Peta, Rajahmundry.", "amenity": "hospital", "description": "Dr. Rajyalakshmi Sekhar (Mbbs)", "name": "Venkatram Nursing Home", "phone": "9989242454"}}, {"type": "node", "id": 3076334695, "lat": 16.9982929, "lon": 81.8025949, "tags": {"addr:full": "Vl Puram Nh5, Rajahmundry.", "amenity": "hospital", "name": "Amma Hospital"}}, {"type": "node", "id": 3076334696, "lat": 16.9983393, "lon": 81.7717968, "tags": {"addr:full": "Ullithotaveedhi, Rajahmundry.", "amenity": "hospital", "name": "Postal Dispencary", "phone": "0883-2442646"}}, {"type": "node", "id": 3076334697, "lat": 16.9987228, "lon": 81.7761735, "tags": {"addr:full": "#40-4-16, Ramalayam Veedhi, Mangalavarapu Peta, Rajhmundry.", "amenity": "hospital", "description": "Dr.P.Tirumala (Md)", "name": "Aparna Nursing Home", "phone": "0883-2476739"}}, {"type": "node", "id": 3076334698, "lat": 16.9989094, "lon": 81.7699384, "tags": {"addr:full": "Vullithota Veedhi, Rajahmundry.", "amenity": "hospital", "description": "Dr.G.Madhubabu", "name": "Municipal Corporation Of Rajahmudnry Dispensary"}}, {"type": "node", "id": 3076334699, "lat": 17.000766, "lon": 81.7747698, "tags": {"addr:full": "Beside Urvasi Complex, Rajahmundry.", "amenity": "hospital", "name": "Esi Dispencary"}}, {"type": "node", "id": 3076334700, "lat": 17.0009852, "lon": 81.7961117, "tags": {"addr:full": "V.L. Puram, Rajahmundry.", "amenity": "hospital", "name": "Municipal Corporaion Homeopati Dispensary"}}, {"type": "node", "id": 3076334701, "lat": 17.0010004, "lon": 81.7953068, "tags": {"addr:district": "East Godavari", "addr:full": "D.No: 86-26-7, M. S. Narayana Street, Near R. T. C. Complex, V.L. Puram", "addr:postcode": "533103", "addr:state": "Andhra Pradesh", "amenity": "hospital", "description": "Dr.T. Perumallu(Ms Gen, Mch) & Dr.T.Padmaja (Mbbs, Md Obst& Gyn)", "name": "Adarsh Hospital", "opening_hours": "24/7", "phone": "0883-2431955, 2449553", "source": "OpenGovernmentData"}}, {"type": "node", "id": 3076334702, "lat": 17.0014059, "lon": 81.7761625, "tags": {"addr:full": "Opp.bharat Bommalu, Mangalavarapu Peta, Rajahmundy.", "amenity": "hospital", "name": "Dangeti Narayanaswamy Memorial Metarnity & General Hospital"}}, {"type": "node", "id": 3076334703, "lat": 17.0016775, "lon": 81.7799074, "tags": {"addr:full": "Bye Pass Road, Tadi Thota, Rajahmundry.", "amenity": "hospital", "description": "Dr.K.Satyanarayana(Mbbs, Fcgp), K.Premalatha(Mbbs)", "name": "Sridhar Nursing Home"}}, {"type": "node", "id": 3076334704, "lat": 17.0020893, "lon": 81.7839046, "tags": {"addr:district": "East Godavari", "addr:full": "Opp Velugu Park, Ambedkarnagar", "addr:postcode": "533101", "addr:state": "Andhra Pradesh", "addr:subdistrict": "Rajahmundry (Urban) Mandal", "amenity": "hospital", "description": "G.S.L.Medical College, General Hospital, (G.S.L. Educational Society)", "healthcare": "centre", "name": "Urban Health Centre, Ambedkarnagar", "source": "OpenGovernmentData"}}, {"type": "node", "id": 3076334705, "lat": 17.0022068, "lon": 81.7684565, "tags": {"addr:full": "Mydavolu Vari Street, Rajahmundry.", "amenity": "hospital", "description": "Dr.Mydavolu Padmajarani (Bams)", "name": "Ayurveda Vydyashala"}}, {"type": "node", "id": 3076334706, "lat": 17.0026016, "lon": 81.775522, "tags": {"addr:full": "Opp. Apsara Theatre, Rajahmundry.", "amenity": "hospital", "description": "Dr. D Samba Siva Rao", "name": "Praja Vaidhyasala"}}, {"type": "node", "id": 3076334707, "lat": 17.002669, "lon": 81.7824868, "tags": {"addr:full": "Sharada Nagar, Bypass Road, Rajahmundry.", "amenity": "hospital", "name": "Sri Maruti Nursing Home"}}, {"type": "node", "id": 3076334708, "lat": 17.0029054, "lon": 81.7843096, "tags": {"addr:full": "Gorakshnapeta, Rajahmundry.", "amenity": "hospital", "description": "Dr.Y.Durgaprasad(Mbbs), Dr.Y.Chitti Sudha (Md)", "name": "Abhi Talli Pilla Asupatri", "phone": "0883-2447779"}}, {"type": "node", "id": 3076334709, "lat": 17.0030845, "lon": 81.7755068, "tags": {"addr:full": "Opp. Apsara Theatre, Rajahmundry.", "amenity": "hospital", "description": "Dr. M.V.S.N. Reddy", "name": "Sri Srinivasa Clinic", "phone": "9394794406"}}, {"type": "node", "id": 3076334711, "lat": 17.0037246, "lon": 81.7893841, "tags": {"addr:full": "Syamala Nagar, Rajahmundry.", "amenity": "hospital", "description": "Dr. Venkata Krishna", "name": "Vimalamma Hospital & Krishna Eye Hospital", "phone": "0883-2467735"}}, {"type": "node", "id": 3076334712, "lat": 17.0044276, "lon": 81.7670061, "tags": {"addr:full": "Godavari Gattu, Rajahmundry.", "amenity": "hospital", "name": "Sri Ramakrishna Mission Charitable Dispensary"}}, {"type": "node", "id": 3076334713, "lat": 17.0045361, "lon": 81.7810717, "tags": {"addr:full": "#45-1-4, Gorakshna Peta, Rajahmundry.", "amenity": "hospital", "description": "Dr.N.B.Reddy", "name": "Pragati Hospital"}}, {"type": "node", "id": 3076334714, "lat": 17.0047609, "lon": 81.7880749, "tags": {"addr:full": "Gandhipuram-2, Rajahmundry.", "amenity": "hospital", "name": "Vijaya Hopitals"}}, {"type": "node", "id": 3076334715, "lat": 17.0049779, "lon": 81.7803062, "tags": {"addr:full": "Byepass Road, Opp.chruch,muncipal Shoping Complex, Rajahmundry.", "amenity": "hospital", "name": "Municipal Corporation Dispensary"}}, {"type": "node", "id": 3076334717, "lat": 17.004929, "lon": 81.794898, "tags": {"addr:full": "Tilak Road, Rajahmundry.", "amenity": "hospital", "name": "Madhavi Nursing Home"}}, {"type": "node", "id": 3076334718, "lat": 17.0050427, "lon": 81.7946801, "tags": {"addr:full": "#79-16-13, Omkar Street, Tilak Road, Rajahmundry.", "amenity": "hospital", "name": "Dakshayani", "phone": "9248467686, 9032035352"}}, {"type": "node", "id": 3076334719, "lat": 17.0051258, "lon": 81.7677332, "tags": {"addr:full": "Beside Pedda Anjaneya Swamy Temple, Godavari Gattu, Rajahmundry.", "amenity": "hospital", "description": "Dr.A.D.Kamacharyulu (Ba)", "name": "Sri Shanmukha Sri Rambabu Hospital", "phone": "9397913834"}}, {"type": "node", "id": 3076334720, "lat": 17.005944, "lon": 81.7800133, "tags": {"addr:full": "Gandhiveedhi, Gandipuram, Rajahmundry.", "amenity": "hospital", "description": "Dr. A. Sri Ramakrishna (Mpt)", "name": "Sri Vishnu Physiotherapy & Pain Relilf Centre", "phone": "9885482652"}}, {"type": "node", "id": 3076334721, "lat": 17.0052657, "lon": 81.7815879, "tags": {"addr:full": "#46-12-31, Danavaipeta, Rajahmundry.", "amenity": "hospital", "description": "Dr.k.rajababu, Dr.sudha Devi", "name": "Rajyalakshmi Nursing Home"}}, {"type": "node", "id": 3076334722, "lat": 17.0053107, "lon": 81.785263, "tags": {"addr:full": "Near Raju Neuro Multi Speciality Hospital,danvaipeta, Rajahmundry.", "amenity": "hospital", "name": "Sri Ramya Sppech & Hearing Center", "phone": "0883-26571640"}}, {"type": "node", "id": 3076334723, "lat": 17.0054465, "lon": 81.7860538, "tags": {"addr:full": "Gandhi Puram-ii,near Prakash Nagar Round Park, Rajahmundry.", "amenity": "hospital", "name": "Kalyan Nursing Home"}}, {"type": "node", "id": 3076334724, "lat": 17.0055032, "lon": 81.7814296, "tags": {"addr:full": "Danavaipeta, Rajahmundry.", "amenity": "hospital", "description": "Dr.B.Durga Prasad(Md Pg)", "name": "Suguna Children Hospital"}}, {"type": "node", "id": 3076334725, "lat": 17.0055417, "lon": 81.7812038, "tags": {"addr:full": "Danavaipeta, Rajahmundry.", "amenity": "hospital", "description": "Dr. M. Srihari Prasannakumar Reddy", "healthcare": "hospital", "healthcare:speciality": "dermatology", "name": "Sri Hari Skin Hospital", "phone": "0883-2424252"}}, {"type": "node", "id": 3076334726, "lat": 17.0056313, "lon": 81.7833072, "tags": {"addr:full": "Near Gandhi Park,danvaipeta, Rajahmundry.", "amenity": "hospital", "name": "Sravanthi Hospital"}}, {"type": "node", "id": 3076334727, "lat": 17.0056544, "lon": 81.7827869, "tags": {"addr:full": "Near Panduranga Temple,danavaipeta, Rajahmundry.", "amenity": "hospital", "healthcare": "hospital", "name": "Gopala Krishna Eye Specialist", "phone": "9348014281"}}, {"type": "node", "id": 3076334728, "lat": 17.0056594, "lon": 81.7688365, "tags": {"addr:district": "East Godavari", "addr:full": "D.No: 10-7-38, Fort Gate, Near Adilaxmi Temple, Rangreejupeta", "addr:postcode": "533101", "addr:state": "Andhra Pradesh", "amenity": "hospital", "description": "Dr.G.Chinasatti Raju (Mbbs, Cal)", "name": "Sri Venkateswara Hospitals", "phone": "0883-2473124, 2469016, 9052157132", "source": "OpenGovernmentData"}}, {"type": "node", "id": 3076334729, "lat": 17.0056961, "lon": 81.7828479, "tags": {"addr:full": "Danvaipeta, Rajahmundry.", "amenity": "hospital", "healthcare": "hospital", "name": "Dr.gopi Eye Hospital"}}, {"type": "node", "id": 3076334730, "lat": 17.005774, "lon": 81.7813827, "tags": {"addr:full": "Danavaipeta, Rajahmundry.", "amenity": "hospital", "description": "Dr. A. Krishna Kumari (Mbbs, Dch)", "name": "Dr. A. Krishna Kumari", "phone": "0883-2471347"}}, {"type": "node", "id": 3076334731, "lat": 17.0057948, "lon": 81.7827961, "tags": {"addr:full": "Danavaipeta, Rajahmundry.", "amenity": "hospital", "healthcare": "hospital", "name": "Sravani E.N.T. & Chest Hospital"}}, {"type": "node", "id": 3076334732, "lat": 17.0058031, "lon": 81.7819031, "tags": {"addr:full": "Danavaipeta, Rajahmundry.", "amenity": "hospital", "description": "Dr. D. S. Arunkumar (Ms, Ent)", "name": "Anjana Ent Care", "phone": "9490886118"}}, {"type": "node", "id": 3076341633, "lat": 17.0058899, "lon": 81.7803053, "tags": {"addr:full": "Byepass Road, Danavaipeta, Rajahmundry.", "amenity": "hospital", "description": "Dr. C. Pradeep (Mbbs, Frsh)", "name": "Pradeep Diabatis Centre", "phone": "0883-2465165"}}, {"type": "node", "id": 3076341634, "lat": 17.0059084, "lon": 81.7857103, "tags": {"addr:full": "Opp.raju Neuro Hospital, Rajahmundry.", "amenity": "hospital", "name": "Dr. G.V. Gopal Sarma", "phone": "9440111619"}}, {"type": "node", "id": 3076341635, "lat": 17.0059405, "lon": 81.785379, "tags": {"addr:district": "East Godavari", "addr:full": "H.No: 76-4-7, Gandhipuram - 2", "addr:postcode": "533103", "addr:state": "Andhra Pradesh", "amenity": "hospital", "fax": "2461679", "name": "Raja Neuro And Multi Speciality Hospital Pvt Ltd", "opening_hours": "24/7", "phone": "0883-2445199", "source": "OpenGovernmentData"}}, {"type": "node", "id": 3076341636, "lat": 17.0059499, "lon": 81.7880764, "tags": {"addr:full": "Opp. Prakash Nagar Round Park, Gandhi Puram-Ii, Rajahmundry.", "amenity": "hospital", "name": "Navata Nursing Home", "phone": "0883-2467714"}}, {"type": "node", "id": 3076341637, "lat": 17.0059927, "lon": 81.7853972, "tags": {"addr:full": "Danavaipeta, Rajahmundry.", "amenity": "hospital", "name": "Raja Emergency Hospital"}}, {"type": "node", "id": 3076341640, "lat": 17.0061496, "lon": 81.7869819, "tags": {"addr:full": "Opp.E-Seva Danvaipeta Branch, Rajahmundry.", "amenity": "hospital", "name": "Sri Mani Orthopedic Hospital", "phone": "0883-2468787"}}, {"type": "node", "id": 3076341641, "lat": 17.0062208, "lon": 81.7839957, "tags": {"addr:full": "Opp.comercial Tax office Road, Danavaipeta, Rajahmundry.", "amenity": "hospital", "name": "Swetha Hospital"}}, {"type": "node", "id": 3076341642, "lat": 17.0063436, "lon": 81.7816558, "tags": {"addr:full": "Danavaipeta, Rajahmundry.", "amenity": "hospital", "description": "Dr. P. Sagar", "name": "Rama Children Nursing Home"}}, {"type": "node", "id": 3076341643, "lat": 17.0063494, "lon": 81.7814329, "tags": {"addr:full": "Danavaipeta, Rajahmundry.", "amenity": "hospital", "description": "Dr. P. Ravikiran (Md Dch)", "name": "Nest New Born Hospital"}}, {"type": "node", "id": 3076341644, "lat": 17.0063963, "lon": 81.7852228, "tags": {"addr:full": "Akhil Apartments,danavaipeta, Rajahmundry.", "amenity": "hospital", "name": "American Neuro Hub Physiotherapy Hospital"}}, {"type": "node", "id": 3076341645, "lat": 17.006296, "lon": 81.7833831, "tags": {"addr:district": "East Godavari", "addr:full": "D.No: 46-17-38, Danavaipeta, Near Panduranga Swami Temple", "addr:postcode": "533103", "addr:state": "Andhra Pradesh", "amenity": "hospital", "contact:mobile": "8832442283", "fax": "0883 2442285", "healthcare": "hospital", "name": "Sri Aditya Hospital", "opening_hours": "24/7", "source": "OpenGovernmentData"}}, {"type": "node", "id": 3076341646, "lat": 17.0065246, "lon": 81.7866579, "tags": {"addr:district": "East Godavari", "addr:full": "Near Prakash Nagar Round Park, Rajamundry", "addr:postcode": "533103", "addr:state": "Andhra Pradesh", "amenity": "hospital", "contact:phone": "0883 2468222;0883 2468224", "name": "Surya Hospital - East Godavari", "opening_hours": "24/7", "phone": "0883-668246", "source": "OpenGovernmentData"}}, {"type": "node", "id": 3076341648, "lat": 17.0066983, "lon": 81.7849111, "tags": {"addr:full": "Near Green Park Restaurant, Rajahmundry.", "amenity": "hospital", "name": "Sri Surya Homeopathy Hospital"}}, {"type": "node", "id": 3076341649, "lat": 17.0067393, "lon": 81.795441, "tags": {"addr:full": "Tilak Road, Rajahmundry.", "amenity": "hospital", "description": "Dr.G. Srinivas (Md Dlo)", "name": "Vijaya Bharti Chest Institute"}}, {"type": "node", "id": 3076341650, "lat": 17.006811, "lon": 81.7811882, "tags": {"addr:full": "Jetti Towers, Danavaipeta, Rajahmundry.", "amenity": "hospital", "description": "Toll Free No 18001022202", "name": "Homeo Care International", "phone": "9550001133"}}, {"type": "node", "id": 3076341652, "lat": 17.0068948, "lon": 81.7861699, "tags": {"addr:full": "Near Prakash Nagar Round Park, Rajahmundry.", "amenity": "hospital", "name": "Pragati Hospital"}}, {"type": "node", "id": 3076341653, "lat": 17.0069278, "lon": 81.7880667, "tags": {"addr:full": "Near Prakash Nagar Round Park,gandhi Puram-ii, Rajahmundry.", "amenity": "hospital", "name": "Sita Gastro Entrology & Super Speciality Hospital", "phone": "0883-2447711"}}, {"type": "node", "id": 3076341654, "lat": 17.0069568, "lon": 81.7954634, "tags": {"addr:full": "Tilak Road, Rajahmundry.", "amenity": "hospital", "description": "Dr.S.Vijaya(Ms) Ongc Panel Hospital", "name": "Dr.vijaya Eye Hospital"}}, {"type": "node", "id": 3076341655, "lat": 17.0070487, "lon": 81.784046, "tags": {"addr:full": "Near Vakulla Baby Children Hospital,danvaipeta, Rajahmundry.", "amenity": "hospital", "name": "Sri Nanda Hospital", "phone": "0883-2465394"}}, {"type": "node", "id": 3076341656, "lat": 17.0070884, "lon": 81.783762, "tags": {"addr:full": "Near Commercial Tax office, Danvaipeta, Rajahmundry.", "amenity": "hospital", "description": "Dr. S. Kiran Reddy", "name": "Vijetha Orthopedic Super Speciality Hospital", "phone": "0883-24433922"}}, {"type": "node", "id": 3076341657, "lat": 17.0070938, "lon": 81.7867766, "tags": {"addr:full": "Park Avenue Apartments,near Prakash Nagar Round Park, Rajahmundry.", "amenity": "hospital", "name": "Suhasa Dental Multi Specialities Hospital", "phone": "0883-2466078"}}, {"type": "node", "id": 3076341658, "lat": 17.0071781, "lon": 81.7863515, "tags": {"addr:full": "Praksh Nagar, Rajahmundry.", "amenity": "hospital", "name": "Ushodaya E.n.t Hospital", "phone": "0883-2445777"}}, {"type": "node", "id": 3076341659, "lat": 17.0071978, "lon": 81.7907703, "tags": {"addr:full": "Prakash Nagar, Rajahmundry.", "amenity": "hospital", "description": "Dr.P.Srinivas M.B.B.S", "name": "Sri Srinivasa Hospital", "phone": "0883-2469991"}}, {"type": "node", "id": 3076341660, "lat": 17.0074179, "lon": 81.7865652, "tags": {"addr:full": "Prakashnagar, Rajahmundry.", "amenity": "hospital", "name": "Padma Madhavi Super Speciality Centre", "phone": "0883-2465501"}}, {"type": "node", "id": 3076341662, "lat": 17.0074794, "lon": 81.7862618, "tags": {"addr:full": "Near. Bharat Petrol Bunk,danavai Peta, Rajahmundry.", "amenity": "hospital", "name": "Sri Padma Madav Neuro Speciality Hospital"}}, {"type": "node", "id": 3076341663, "lat": 17.0074907, "lon": 81.7943102, "tags": {"addr:district": "East Godavari", "addr:full": "H.No: 79-1-4/1, Jawaharlal Nehru Road, Rajamundry", "addr:postcode": "533103", "addr:state": "Andhra Pradesh", "amenity": "hospital", "contact:phone": "08832461640; 08832423208", "name": "Abhaya Emergency Centre", "opening_hours": "24/7", "source": "OpenGovernmentData"}}, {"type": "node", "id": 3076341664, "lat": 17.0075058, "lon": 81.7861728, "tags": {"addr:full": "Opp.bharat Petrol Bunk,danavaipeta, Rajahmundry.", "amenity": "hospital", "name": "Santi Ratna Ent Hospital", "phone": "0883-55752353"}}, {"type": "node", "id": 3076341665, "lat": 17.0075257, "lon": 81.7838677, "tags": {"addr:full": "Danavaipeta, Rajahmundry.", "amenity": "hospital", "name": "Vakula Baby Child Hospital", "phone": "0883-2467979"}}, {"type": "node", "id": 3076341666, "lat": 17.0076208, "lon": 81.7815055, "tags": {"addr:full": "Danavaipeta, Rajahmundry.", "amenity": "hospital", "description": "Dr.G.V. Giridhar (Bmd)", "healthcare": "hospital", "healthcare:speciality": "endocrinology", "name": "Horomnes Rjy Institute of Diabets & Endocrinology", "phone": "7702644144"}}, {"type": "node", "id": 3076341667, "lat": 17.0076219, "lon": 81.7840521, "tags": {"addr:full": "Danavaipeta, Rajahmundry.", "amenity": "hospital", "name": "Nandam Hospital", "phone": "0883-2465394"}}, {"type": "node", "id": 3076341668, "lat": 17.0076233, "lon": 81.7810271, "tags": {"addr:full": "Danavaipeta, Rajahmundry.", "amenity": "hospital", "description": "Dr. Haranath (Md Frsh)", "healthcare": "hospital", "healthcare:speciality": "dermatology", "name": "Bhavya Skin Hospital"}}, {"type": "node", "id": 3076341669, "lat": 17.007627, "lon": 81.7871536, "tags": {"addr:full": "Near Prakash Nagar Round Park, Rajahmundry.", "amenity": "hospital", "name": "Sneha Hospital", "phone": "0883-2468083"}}, {"type": "node", "id": 3076341670, "lat": 17.007687, "lon": 81.7912016, "tags": {"addr:full": "Prakash Nagar, Rajahmundry.", "amenity": "hospital", "name": "Apex Hospital", "phone": "0883-2449191"}}, {"type": "node", "id": 3076341671, "lat": 17.007689, "lon": 81.7897388, "tags": {"addr:full": "Prakash Nagar, Rajahmundry.", "amenity": "hospital", "description": "Dr. Murali(M.B.B.S)", "name": "Pavan Astma,t.b.and Chest Clinic", "phone": "0883-2479847"}}, {"type": "node", "id": 3076341672, "lat": 17.0077123, "lon": 81.7841309, "tags": {"addr:district": "East Godavari", "addr:full": "H.No: 46-18-22, Opposite Idbi Bank, Danavaipeta", "addr:postcode": "533103", "addr:state": "Andhra Pradesh", "amenity": "hospital", "contact:phone": "2431455", "description": "Dr. D.Rama Rao (M.S Ortho)", "name": "Sanjana Orthopaedic Hospital", "phone": "0883-2431455", "source": "OpenGovernmentData"}}, {"type": "node", "id": 3076341673, "lat": 17.0077823, "lon": 81.7838968, "tags": {"addr:district": "East Godavari", "addr:full": "Near Danavaipeta Park, Besind Hdfc Bank,Rajamundry", "addr:postcode": "533103", "addr:state": "Andhra Pradesh", "amenity": "hospital", "contact:phone": "08832441133; 2441134; 2470215", "description": "Dr. Bommreddy Srinivas (Cardiologist)", "name": "Coastal Cardiac And Maternity Centre", "source": "OpenGovernmentData"}}, {"type": "node", "id": 3076341674, "lat": 17.0078054, "lon": 81.7888635, "tags": {"addr:full": "Prakash Nagar, Rajahmundry.", "amenity": "hospital", "name": "Suraksha Emergency Hospital", "phone": "0883-2445504,2445505"}}, {"type": "node", "id": 3076341675, "lat": 17.0078288, "lon": 81.7861115, "tags": {"addr:full": "Near Supraja Hospital,danavai Peta, Rajahmundry.", "amenity": "hospital", "name": "Manasa Hospital"}}, {"type": "node", "id": 3076341676, "lat": 17.0080038, "lon": 81.7895726, "tags": {"addr:full": "Prakash Nagar, Rajahmundry.", "amenity": "hospital", "description": "Dr. Krishna Murthy", "name": "Srikanth Nursing Home", "phone": "0883-2467996,467037"}}, {"type": "node", "id": 3076341678, "lat": 17.0080643, "lon": 81.7814609, "tags": {"addr:full": "Danavaipeta, Rajahmundry.", "amenity": "hospital", "description": "Dr. G.Srinivas(Ms), Dr.G.Sri Devi (Srf)", "name": "Sridevi Cancer Nursing", "phone": "0883-2428055, 9440467297"}}, {"type": "node", "id": 3076341679, "lat": 17.008103, "lon": 81.7755774, "tags": {"addr:district": "East Godavari", "addr:full": "Lakshmivarapu Pet, Devi Chowk", "addr:postcode": "533101", "addr:state": "Andhra Pradesh", "amenity": "hospital", "contact:phone": "0883-2444800", "description": "Dr. Jogarao", "healthcare": "hospital", "healthcare:speciality": "paediatrics", "name": "Siddharth Children & Maternity Hospital", "opening_hours": "24/7", "source": "OpenGovernmentData"}}, {"type": "node", "id": 3076341680, "lat": 17.0081489, "lon": 81.7829309, "tags": {"addr:full": "Danavaipeta,krovidi Lingaraju Street, Rajahmundry.", "amenity": "hospital", "name": "Kandula Sai Diabaties Hospital", "phone": "0883-2467200"}}, {"type": "node", "id": 3076341681, "lat": 17.0081883, "lon": 81.7852679, "tags": {"addr:full": "Danavai Peta,beside Narayana College, Rajahmundry.", "amenity": "hospital", "name": "Jaswanth Psychiatric Hospital"}}, {"type": "node", "id": 3076341682, "lat": 17.0082199, "lon": 81.7865372, "tags": {"addr:full": "Danavaipeta, Rajahmundry.", "amenity": "hospital", "name": "Anurag Chest Hospital", "phone": "0883-2426062"}}, {"type": "node", "id": 3076341683, "lat": 17.0082244, "lon": 81.7861912, "tags": {"addr:full": "Prakash Nagar 2 Street, Rajahmundry.", "amenity": "hospital", "name": "Hopes Hospital", "phone": "0883-2437218"}}, {"type": "node", "id": 3076341684, "lat": 17.0082254, "lon": 81.7863707, "tags": {"addr:full": "Prakash Nagar, Rajahmundry.", "amenity": "hospital", "name": "Nemani Kidny Centre", "phone": "0883-2443474"}}, {"type": "node", "id": 3076341685, "lat": 17.0083496, "lon": 81.7815785, "tags": {"addr:district": "East Godavari", "addr:full": "D.No: 46-12-19, Gandhi Park Back Road, Danavaipeta", "addr:postcode": "533103", "addr:state": "Andhra Pradesh", "amenity": "hospital", "description": "Dr A.rajasekhar", "name": "Sreya Medical Speciality Centre", "phone": "0883-2437979; 2438989", "source": "OpenGovernmentData"}}, {"type": "node", "id": 3076341686, "lat": 17.0084072, "lon": 81.7879144, "tags": {"addr:district": "East Godavari", "addr:full": "H.No: 75-6-20, Near Anjaneya Swmany Temple, Prakasam Nagar, E.G.", "addr:postcode": "533103", "addr:state": "Andhra Pradesh", "amenity": "hospital", "fax": "2461690", "healthcare:speciality": "urology", "name": "Soujanya Hospita", "operator": "Dr. T.V.Narayana Rao", "operator:type": "public", "phone": "0883-2443144,2431562", "source": "OpenGovernmentData"}}, {"type": "node", "id": 3076341687, "lat": 17.0084534, "lon": 81.7758283, "tags": {"addr:full": "Alluri Seetarama Raju Junction, Rajahmundry.", "amenity": "hospital", "name": "Navodaya Homeo Hospital", "phone": "9848435899, 9704355899"}}, {"type": "node", "id": 3076341688, "lat": 17.0085301, "lon": 81.7748412, "tags": {"addr:full": "Beside Urdu Medium School, Rajahmundry.", "amenity": "hospital", "name": "Unani Dispensary"}}, {"type": "node", "id": 3076341689, "lat": 17.0086943, "lon": 81.7810887, "tags": {"addr:full": "Davaipeta, Rajahmundry.", "amenity": "hospital", "description": "Dr.G. Veerabhadra Swamy (Mbbs, Dch), Dr.G. Ananta Lakshmi (Mbbs Dgo)", "name": "Rajhmundry Hospitals", "phone": "0883-2478932"}}, {"type": "node", "id": 3076341690, "lat": 17.0088498, "lon": 81.7747867, "tags": {"addr:district": "East Godavari", "addr:full": "Lakshmivarapu Peta, Seshayya Metta, Devi Chowk, Rajahmundry", "addr:postcode": "533101", "addr:state": "Andhra Pradesh", "amenity": "hospital", "contact:mobile": "8832473603", "name": "Buddhudu Hospitals", "opening_hours": "24/7", "phone": "0883-2473603", "source": "OpenGovernmentData"}}, {"type": "node", "id": 3076341691, "lat": 17.0093773, "lon": 81.7872009, "tags": {"addr:full": "Beside T.t.d. Kalyana Mandapam, Rajahmundry.", "amenity": "hospital", "name": "Sambamurthy Hospital for Nuero Surgeon"}}, {"type": "node", "id": 3076341692, "lat": 17.0105653, "lon": 81.7726469, "tags": {"addr:district": "East Godavari", "addr:full": "H.No: 20-23-7, Aryapuram, Near Gokavaram Bus Stand", "addr:postcode": "533104", "addr:state": "Andhra Pradesh", "amenity": "hospital", "description": "Dr.K.Durga (Mbbs, Dgo), K.Veranna Chowdary (Ms)", "fax": "2471416", "name": "Kranti Nursing Home", "source": "OpenGovernmentData"}}, {"type": "node", "id": 3076341693, "lat": 17.0102148, "lon": 81.7724541, "tags": {"addr:full": "Near Gokavaram Busstand, Rajahmundry.", "amenity": "hospital", "description": "Dr.Suresh Babu (M.B.B.S Dip Diabeties)", "healthcare": "hospital", "name": "Akkina Diabeties", "phone": "0883-2443205"}}, {"type": "node", "id": 3076341694, "lat": 17.0097411, "lon": 81.7716741, "tags": {"addr:full": "Near Gokavaram Bus Stand, Rajahmundry.", "amenity": "hospital", "healthcare": "hospital", "healthcare:speciality": "ophthalmology", "name": "Amar Eye Hospital", "phone": "0883-2472021"}}, {"type": "node", "id": 3076341695, "lat": 17.01067, "lon": 81.7723909, "tags": {"addr:full": "Near Gokavaram Busstand, Rajahmundry.", "amenity": "hospital", "name": "Aalapati Diabeties", "phone": "0883-2460081"}}, {"type": "node", "id": 3076341696, "lat": 17.0107453, "lon": 81.7722214, "tags": {"addr:full": "Near Gokavaram Busstand, Rajahmundry.", "amenity": "hospital", "name": "Divya Hospital", "phone": "0883-6452289"}}, {"type": "node", "id": 3076341697, "lat": 17.0108791, "lon": 81.7759419, "tags": {"addr:full": "Paper Mill Road, Rajahmundry.", "amenity": "hospital", "name": "Kosuri Hospital"}}, {"type": "node", "id": 3076341698, "lat": 17.0109223, "lon": 81.7705865, "tags": {"addr:full": "Sheshayyametta, Rajahmundry.", "amenity": "hospital", "name": "Srinivasa Orthopedic Hospital"}}, {"type": "node", "id": 3076341699, "lat": 17.0109608, "lon": 81.7713333, "tags": {"addr:full": "Aaryapuram Main Road, Rajahmundry.", "amenity": "hospital", "healthcare": "hospital", "healthcare:speciality": "ophthalmology", "name": "Sri Nayana Hospital"}}, {"type": "node", "id": 3076341700, "lat": 17.0108684, "lon": 81.7729886, "tags": {"addr:district": "East Godavari", "addr:full": "H.No: 20-23-4, Behind Nagadevi Theatre, Near Gokavaram Bus Stand.", "addr:postcode": "533104", "addr:state": "Andhra Pradesh", "amenity": "hospital", "contact:mobile": "8832446992", "description": "Dr.Vaasireddy Prasad, Msfrcs (U.K)", "email": "royalhospitalrajahmundry@gmail.com", "fax": "0883 2431818", "name": "Royal Hospital", "opening_hours": "24/7", "phone": "0863-2264477", "source": "OpenGovernmentData", "website": "https://ramakotaiahchildrenshospital.com/"}}, {"type": "node", "id": 3076341701, "lat": 17.0110395, "lon": 81.7909686, "tags": {"addr:full": "Rajendranagar, Rajahmundry.", "amenity": "hospital", "name": "Sri Poorna Primary Hospital"}}, {"type": "node", "id": 3076341702, "lat": 17.0110784, "lon": 81.7717257, "tags": {"addr:district": "East Godavari", "addr:full": "H.No: 12-21-4, Aryapuram Behind Gokavaram", "addr:postcode": "533104", "addr:state": "Andhra Pradesh", "amenity": "hospital", "contact:email": "info@srilathahospitals.com", "contact:mobile": "9959333940", "contact:phone": "+0883-241950, 0883-2461960.", "fax": "2461162", "name": "Sree Latha Hospital", "opening_hours": "24/7", "source": "OpenGovernmentData", "website": "http://srilathahospitals.com/"}}, {"type": "node", "id": 3076341703, "lat": 17.0109325, "lon": 81.7733096, "tags": {"addr:full": "Nagadevi Back Street, Rajahmundry.", "amenity": "hospital", "description": "Dr. B.krishna Kumar", "name": "Bommana Hospital", "phone": "0883-2476652", "source": "OpenGovernmentData"}}, {"type": "node", "id": 3076341704, "lat": 17.0112531, "lon": 81.7719024, "tags": {"addr:district": "East Godavari", "addr:full": "H.No: 12-21-2, Near Chinna Gandhi Statue, Aryapuram, Rajahmundhry", "addr:postcode": "533104", "addr:state": "Andhra Pradesh", "amenity": "hospital", "name": "Gangina Thalli Childern's Hospital", "opening_hours": "24/7", "phone": "0883-2423636", "source": "OpenGovernmentData"}}, {"type": "node", "id": 3076341705, "lat": 17.0116753, "lon": 81.7722936, "tags": {"addr:full": "Near Gokavaram Busstand, Rajahmundry.", "amenity": "hospital", "name": "Bhavathi Homeo Hospital"}}, {"type": "node", "id": 3076341706, "lat": 17.0121948, "lon": 81.7718541, "tags": {"addr:full": "Aaryapuram Main Road, Rajahmundry.", "amenity": "hospital", "description": "Dr. Pathuri", "name": "Pothuri Skin & Hair Hospital"}}, {"type": "node", "id": 3076341707, "lat": 17.0124963, "lon": 81.7718688, "tags": {"addr:full": "Aaryapuram Road, Rajahmundy.", "amenity": "hospital", "name": "Sarojini Dental Hospital", "phone": "0883-2473566"}}, {"type": "node", "id": 3076341708, "lat": 17.0131416, "lon": 81.7716415, "tags": {"addr:district": "East Godavari", "addr:full": "Near Gokavaram Bus stand, Aryapuram, Rajamahendravaram, East Godavari", "addr:postcode": "533104", "addr:state": "Andhra Pradesh", "amenity": "hospital", "contact:phone": "0883-2471147 / 2477701 / 2477702", "healthcare": "hospital", "healthcare:speciality": "ophthalmology", "name": "Akira Eye Hospital", "source": "OpenGovernmentData", "website": "http://akiraeyehospital.in/"}}, {"type": "node", "id": 3076341709, "lat": 17.0134508, "lon": 81.7726818, "tags": {"addr:full": "Near Rythu Bazar, Rajahmundry.", "amenity": "hospital", "name": "Chunnilal Jaju Municipal Maternity Hospital"}}, {"type": "node", "id": 3076341710, "lat": 17.0134786, "lon": 81.7727676, "tags": {"addr:full": "Aaryapuram, Rajahmundry.", "amenity": "hospital", "name": "Muncipal Corporation of Alopathi Hospital"}}, {"type": "node", "id": 3076341711, "lat": 17.0140744, "lon": 81.7774286, "tags": {"addr:district": "East Godavari", "addr:full": "Near Kambala Park", "addr:postcode": "533105", "addr:state": "Andhra Pradesh", "amenity": "hospital", "contact:phone": "2465434", "fax": "2465434", "name": "Swatantra Hospitals", "opening_hours": "24/7", "phone": "0883-2400400", "source": "OpenGovernmentData"}}, {"type": "node", "id": 3076341712, "lat": 17.0143021, "lon": 81.7843141, "tags": {"addr:full": "Y-junction, Jayakrishnapuram, Rajahmundry.", "amenity": "hospital", "name": "Dr. Allu Ramalingayya Homeo Hospital And College"}}, {"type": "node", "id": 3076341713, "lat": 17.0143276, "lon": 81.7765732, "tags": {"addr:full": "Ademmadibba, Rajahmundry.", "amenity": "hospital", "name": "Vasu Hospital"}}, {"type": "node", "id": 3076341714, "lat": 17.0144747, "lon": 81.7716019, "tags": {"addr:district": "East Godavari", "addr:full": "H.No: 12-18-12, Middle Street, Near Sri Satya Narayana Swamy Temple", "addr:postcode": "533104", "addr:state": "Andhra Pradesh", "amenity": "hospital", "name": "Dr.Chainulus Hospital and Anusha Critical Carecenter", "source": "OpenGovernmentData"}}, {"type": "node", "id": 3076341715, "lat": 17.0148228, "lon": 81.776819, "tags": {"addr:full": "Ramchandara Rao Peta, Kambalatank, Rajahmundry.", "amenity": "hospital", "name": "G S L Trust Cancer Hospital"}}, {"type": "node", "id": 3076341716, "lat": 17.0150114, "lon": 81.7811317, "tags": {"addr:full": "Veerabhadrapuram, Rajahmundry.", "amenity": "hospital", "name": "Sri Rama Santhana Safalya Kendram"}}, {"type": "node", "id": 3076341717, "lat": 17.0163942, "lon": 81.7808306, "tags": {"addr:district": "East Godavari", "addr:full": "Jayakrishnapuram", "addr:postcode": "533103", "addr:state": "Andhra Pradesh", "amenity": "hospital", "name": "Bhavani Nursing Home", "source": "OpenGovernmentData"}}, {"type": "node", "id": 3076341718, "lat": 17.0173375, "lon": 81.7729584, "tags": {"addr:full": "Mulagoyya Centre, Seetampeta", "amenity": "hospital", "description": "Dr. K Rajashekar", "name": "Mother Terissa Hospital"}}, {"type": "node", "id": 3076341719, "lat": 17.0178118, "lon": 81.7752371, "tags": {"addr:full": "Seetampeta, Rajahmundry", "amenity": "hospital", "name": "Amrutha Hospitals"}}, {"type": "node", "id": 3076341721, "lat": 17.0188365, "lon": 81.800639, "tags": {"addr:full": "73-12-4/1a, Narayanapuram, Opp. Ele School, Rajahmundry.", "amenity": "hospital", "description": "Hospital", "name": "Sri Saiteja Hospital", "phone": "0883-2436317"}}, {"type": "node", "id": 3076341722, "lat": 17.0192208, "lon": 81.7741456, "tags": {"addr:full": "Seetampeta, Rajahmundry", "amenity": "hospital", "name": "Sv Dattatreya Ayurvedha Hospitals"}}, {"type": "node", "id": 3076341723, "lat": 17.0195969, "lon": 81.7917809, "tags": {"addr:district": "East Godavari", "addr:full": "Opp.Central Prision, Rajamahendravaram", "addr:postcode": "533106", "addr:state": "Andhra Pradesh", "addr:subdistrict": "Rajahmundry (Urban) Mandal", "amenity": "hospital", "description": "District Hospital", "name": "District Hospital,Rajahmundry", "phone": "0883- 442555,92903434", "source": "OpenGovernmentData"}}, {"type": "node", "id": 3076341724, "lat": 17.0198394, "lon": 81.7726437, "tags": {"addr:full": "Bruhannalapeta, Rajahmundry.", "amenity": "hospital", "name": "Urban Health Centre"}}, {"type": "node", "id": 3076341725, "lat": 17.0209427, "lon": 81.7829255, "tags": {"addr:district": "East Godavari", "addr:full": "Plot No: 1, R V Nagar Opp: Market Yard, Korukonda Road Rajamundry533105 East Godavari", "addr:postcode": "533105", "addr:state": "Andhra Pradesh", "amenity": "hospital", "contact:phone": "08832443442; 2443441;", "name": "Goutami Eye Institute", "opening_hours": "24/7", "phone": "0883-2443441", "source": "OpenGovernmentData"}}, {"type": "node", "id": 3076341726, "lat": 17.0209627, "lon": 81.774388, "tags": {"addr:full": "Sitam Peta, Rajahmundry.", "amenity": "hospital", "name": "Ratna Mother & Child Hospital"}}, {"type": "node", "id": 3076341727, "lat": 17.020972, "lon": 81.7726002, "tags": {"addr:full": "Sitampeta, Rajahmundry.", "amenity": "hospital", "name": "Primary Health Centre"}}, {"type": "node", "id": 3076341729, "lat": 17.0209835, "lon": 81.7767428, "tags": {"addr:city": "Rajahmundry", "addr:district": "East Godavari", "addr:full": "Seethampeta", "addr:postcode": "533105", "addr:state": "Andhra Pradesh", "addr:street": "lalithanagar", "amenity": "hospital", "contact:phone": "2476305", "emergency": "yes", "healthcare": "hospital", "healthcare:speciality": "paediatrics", "name": "Chaitanya Nursing Home", "source": "OpenGovernmentData"}}, {"type": "node", "id": 3076341730, "lat": 17.0215655, "lon": 81.7839417, "tags": {"addr:full": "Buddavarupu Suyanarayana Road, Rajahmundry.", "amenity": "hospital", "description": "Research Institute", "name": "Filaria Hospital"}}, {"type": "node", "id": 3076341731, "lat": 17.0218707, "lon": 81.7946675, "tags": {"addr:full": "Ctri Road, Rajahmundry.", "amenity": "hospital", "description": "Dr.T.Satnarayana (M.Com, M.H.P.G)", "healthcare": "hospital", "name": "Homeo Hospital", "phone": "0883-2449394"}}, {"type": "node", "id": 3076341732, "lat": 17.0223102, "lon": 81.776799, "tags": {"addr:full": "Sriram Nagar, Rajahmundry.", "amenity": "hospital", "description": "E.S.I.Hospital", "name": "Employee State Insurance Hospital", "phone": "0883-2479079"}}, {"type": "node", "id": 3076342033, "lat": 17.0233664, "lon": 81.7760646, "tags": {"addr:full": "Sriram Nagar, Rajahmundry.", "amenity": "hospital", "name": "Dr.p.ramachandra Rao Orthopetic Center"}}, {"type": "node", "id": 3076342034, "lat": 17.0233913, "lon": 81.7757656, "tags": {"addr:full": "Sri Ram Nagar, Rajahmundry.", "amenity": "hospital", "name": "Harika Diabetes Centre"}}, {"type": "node", "id": 3076342035, "lat": 17.0240441, "lon": 81.7826563, "tags": {"addr:full": "Ramakrishna Rao Peta, Rajahmundry.", "amenity": "hospital", "name": "Sarada Nursing Home", "phone": "0883-2479062"}}, {"type": "node", "id": 3076342036, "lat": 17.0242996, "lon": 81.7847058, "tags": {"addr:full": "Weavers Colony,korukonda Road, Rajahmundry.", "amenity": "hospital", "name": "Sushruta Nursing Home"}}, {"type": "node", "id": 3076342037, "lat": 17.024538, "lon": 81.7764279, "tags": {"addr:full": "B.V.M School Road, Rajahmundry.", "amenity": "hospital", "name": "S.R. Hospitals", "phone": "0883-2478145"}}, {"type": "node", "id": 3076342038, "lat": 17.0252764, "lon": 81.8049384, "tags": {"addr:full": "Lalacheruvu, Subbarao Peta, Opp. Spinning Mill, Rajahmundry.", "amenity": "hospital", "description": "Dr. Ramachandra Rao (Bsc Dhms)", "name": "Sai Teja Hospital", "phone": "9912109597"}}, {"type": "node", "id": 3076342039, "lat": 17.0261706, "lon": 81.8056364, "tags": {"addr:full": "Lalacheruvu Junction, Rajahmundry.", "amenity": "hospital", "description": "Dr. Rambabu", "name": "Sri Hospital", "phone": "9397951024"}}, {"type": "node", "id": 3076342040, "lat": 17.034771, "lon": 81.7817019, "tags": {"addr:district": "East Godavari", "addr:full": "Beside Srk Nagar Park, Rajahmundry.", "addr:postcode": "533105", "addr:state": "Andhra Pradesh", "addr:subdistrict": "Rajahmundry (Urban) Mandal", "amenity": "hospital", "description": "Urban Health Centre", "healthcare": "centre", "name": "Urban Health Centre, Anand Nagar", "source": "OpenGovernmentData"}}, {"type": "node", "id": 3076345360, "lat": 16.9941919, "lon": 81.7758721, "tags": {"addr:district": "East Godavari", "addr:full": "Vt College Road, Behind Kotipalli Bus Stand", "addr:postcode": "533101", "addr:state": "Andhra Pradesh", "amenity": "hospital", "contact:phone": "2426775", "description": "Dr.M.Rajendra Prasad (Bds), Dr.M.Sangetha (Bds)", "fax": "2426775", "name": "Geetha Mullapudi Superspeciality Dental Hospital", "phone": "0883-2426775, 242639", "source": "OpenGovernmentData"}}, {"type": "node", "id": 3276208855, "lat": 17.0104908, "lon": 81.7718266}, {"type": "node", "id": 3276208857, "lat": 17.0102553, "lon": 81.771796}, {"type": "node", "id": 3276208858, "lat": 17.0102023, "lon": 81.772242}, {"type": "node", "id": 3276208859, "lat": 17.0104378, "lon": 81.7722726}, {"type": "node", "id": 3544419024, "lat": 17.0078781, "lon": 81.7925295, "tags": {"amenity": "hospital"}}, {"type": "node", "id": 6219653765, "lat": 17.0190237, "lon": 81.7757004, "tags": {"addr:city": "Rajahmundry", "addr:housenumber": "17-9-14", "addr:postcode": "533104", "addr:street": "Seethampeta", "alt_phone": "+91 883 244 2942", "amenity": "hospital", "building": "yes", "description": "Doctors at the hospital: Dr. Suryanarayana Kasturi, Dr. Sharma Kasturi, Dr. Sarada Kasturi, Dr. Ram Mohan Kasturi, Dr. Vijaya Kasturi", "emergency": "yes", "healthcare:speciality": "ent;ear_nose_throat;physician;diabetology;surgery;anesthesia;multi", "hospital_type": "multispeciality", "name": "Annapurna Hospitals", "opening_hours": "yes @ 24/7", "phone": "0883-2471249", "wheelchair": "yes"}}, {"type": "node", "id": 6308256215, "lat": 17.0061239, "lon": 81.795246, "tags": {"amenity": "hospital"}}, {"type": "node", "id": 6755526825, "lat": 17.0067421, "lon": 81.7895664, "tags": {"addr:district": "East Godavari", "addr:full": "D.No: 75-7-20, Near Prakash Nagar Round Park, Rajahmundry", "addr:postcode": "533103", "addr:state": "Andhra Pradesh", "amenity": "hospital", "contact:mobile": "8832472999", "name": "Kamalakar Hospital", "opening_hours": "24/7", "source": "OpenGovernmentData"}}, {"type": "node", "id": 6758632648, "lat": 17.008131, "lon": 81.785531, "tags": {"addr:district": "East Godavari", "addr:full": "D.No: 46-21-10, Danavaipeta, Rajahmundry", "addr:postcode": "533103", "addr:state": "Andhra Pradesh", "amenity": "hospital", "name": "Murthy Neuro Super Speciality Hospital", "source": "OpenGovernmentData"}}, {"type": "node", "id": 6758809074, "lat": 17.0066113, "lon": 81.7952165, "tags": {"addr:district": "East Godavari", "addr:full": "H.No: 78-9-11/9, Behind R.T.C Complex , Gandhipuram (: East Godavari )", "addr:postcode": "533103", "addr:state": "Andhra Pradesh", "amenity": "hospital", "name": "Vijaya Hospital - East Godavari", "source": "OpenGovernmentData"}}, {"type": "node", "id": 6758846662, "lat": 17.0040386, "lon": 81.795132, "tags": {"addr:district": "East Godavari", "addr:full": "H.No: 86-8-6, Tilak Road.", "addr:postcode": "533103", "addr:state": "Andhra Pradesh", "amenity": "hospital", "contact:mobile": "8832461666", "name": "Madhavi Nursing Home - East Godavari", "source": "OpenGovernmentData"}}, {"type": "node", "id": 6761191760, "lat": 17.0068421, "lon": 81.7908552, "tags": {"addr:district": "East Godavari", "addr:full": "Syamala Nagar", "addr:postcode": "533103", "addr:state": "Andhra Pradesh", "amenity": "hospital", "contact:phone": "2469301", "name": "Prasanthi Nursing Home - East Godavari", "source": "OpenGovernmentData"}}, {"type": "node", "id": 6768379254, "lat": 17.0191905, "lon": 81.7995697, "tags": {"addr:district": "East Godavari", "addr:full": "Near Indiragandhi Statue Jn. Lalacheruvu", "addr:postcode": "533106", "addr:state": "Andhra Pradesh", "amenity": "hospital", "contact:phone": "440022", "name": "Saiteja Hospital", "source": "OpenGovernmentData"}}, {"type": "node", "id": 6768594134, "lat": 17.007223, "lon": 81.7860661, "tags": {"addr:district": "East Godavari", "addr:full": "H.No: 75-8-12, Gandhipuram", "addr:postcode": "533103", "addr:state": "Andhra Pradesh", "amenity": "hospital", "name": "Bharadwaja Heart and Maternity Centre", "source": "OpenGovernmentData"}}, {"type": "node", "id": 6768622936, "lat": 17.0071384, "lon": 81.7903054, "tags": {"addr:district": "East Godavari", "addr:full": "75-6-23, Prakash Nagar, Rajahmundry", "addr:postcode": "533103", "addr:state": "Andhra Pradesh", "amenity": "hospital", "contact:phone": "08832439191; 2449191;", "fax": "2479191", "name": "Apex Hospital - Rajamundry", "opening_hours": "24/7", "source": "OpenGovernmentData", "website": "https://www.apexhospitals.co.in/"}}, {"type": "node", "id": 6768749179, "lat": 16.9936058, "lon": 81.7764614}, {"type": "node", "id": 6768749180, "lat": 16.9937809, "lon": 81.7767328}, {"type": "node", "id": 6768749181, "lat": 16.9938472, "lon": 81.7766793}, {"type": "node", "id": 6768749182, "lat": 16.9936711, "lon": 81.7764135}, {"type": "node", "id": 6771205695, "lat": 17.007852, "lon": 81.7890843, "tags": {"addr:district": "East Godavari", "addr:full": "H.No: 75-1-7, Prakash Nagar Rajamundry 533103 East Godavari", "addr:postcode": "533103", "addr:state": "Andhra Pradesh", "amenity": "hospital", "contact:phone": "08832469403; 2422864", "name": "Harsha Hospitals", "opening_hours": "24/7", "source": "OpenGovernmentData"}}, {"type": "node", "id": 6771409747, "lat": 17.008206, "lon": 81.7735114, "tags": {"addr:district": "East Godavari", "addr:full": "Gowathmi Grandhalyam St.", "addr:postcode": "533104", "addr:state": "Andhra Pradesh", "amenity": "hospital", "contact:phone": "2443301", "name": "Sri Ram Nursing Home", "source": "OpenGovernmentData"}}, {"type": "node", "id": 6773438669, "lat": 16.999818, "lon": 81.780117, "tags": {"addr:district": "East Godavari", "addr:full": "Bypass Road, Thadithota, Rajamundry", "addr:postcode": "533103", "addr:state": "Andhra Pradesh", "amenity": "hospital", "contact:phone": "08832469478", "name": "Neela Jear Hospital", "source": "OpenGovernmentData"}}, {"type": "node", "id": 6773467818, "lat": 17.0132107, "lon": 81.7963414, "tags": {"addr:district": "East Godavari", "addr:full": "H.No: 75-1-12, Prakash Nagar , East Godavari", "addr:postcode": "533103", "addr:state": "Andhra Pradesh", "amenity": "hospital", "name": "Gowthami Nursing Home", "source": "OpenGovernmentData"}}, {"type": "node", "id": 6773696167, "lat": 17.0092967, "lon": 81.7887054, "tags": {"addr:district": "East Godavari", "addr:full": "Prakash Nagar", "addr:postcode": "533103", "addr:state": "Andhra Pradesh", "amenity": "hospital", "contact:phone": "2467423", "fixme": "Please verify the accurate position of the hospital as I have mapped the facility based on the address provided in Open Government data", "name": "Bhaskara Raju Children's Hospital", "source": "OpenGovernmentData"}}, {"type": "node", "id": 6778583217, "lat": 17.0052493, "lon": 81.7887805, "tags": {"addr:district": "East Godavari", "addr:full": "H.No: 78/8-7, Gandhipuram, Rajahmundry", "addr:postcode": "533103", "addr:state": "Andhra Pradesh", "amenity": "hospital", "contact:mobile": "8832472217", "name": "Sri Ramadas Hospitals", "source": "OpenGovernmentData"}}, {"type": "node", "id": 6781921877, "lat": 16.9992479, "lon": 81.7957422, "tags": {"addr:district": "East Godavari", "addr:full": "H.No: 85-6-24/1, R T C Complex, Morampudi Rd, VL Puram Junction, Rajahmundry.", "addr:postcode": "533103", "addr:state": "Andhra Pradesh", "amenity": "hospital", "contact:email": "info@chakradharhospitals.com", "contact:phone": "093482 91119", "name": "Chakradhar Hospitals", "opening_hours": "24/7", "source": "OpenGovernmentData"}}, {"type": "node", "id": 6781956345, "lat": 16.9225041, "lon": 81.8033677, "tags": {"addr:district": "East Godavari", "addr:full": "Kadiyam Road, Vemagiri, East Godavari", "addr:postcode": "533125", "addr:state": "Andhra Pradesh", "amenity": "hospital", "contact:phone": "0883-2418666", "name": "Paramahansa Yogananda Eye Hospital", "opening_hours": "24/7", "source": "OpenGovernmentData"}}, {"type": "node", "id": 6782223155, "lat": 17.0057251, "lon": 81.788334, "tags": {"addr:district": "East Godavari", "addr:full": "H.No: 76-6-17/11 And 13, Av Apparao Road, Opp Priyanka Garden, Gandhipuram 2, Rajamundry", "addr:postcode": "533 105", "addr:state": "Andhra Pradesh", "amenity": "hospital", "contact:mobile": "8833989000", "contact:phone": "0883 - 3989000", "name": "Vasan Eye Care Hospital", "source": "OpenGovernmentData", "website": "https://vasaneye.com/"}}, {"type": "node", "id": 6782266495, "lat": 17.0057238, "lon": 81.7848122, "tags": {"addr:district": "East Godavari", "addr:full": "H.No: 76-5-4, Opposite Aakar Consulting Eng. Ganugala Veedhi", "addr:postcode": "533103", "addr:state": "Andhra Pradesh", "amenity": "hospital", "contact:mobile": "8978934777", "name": "Netra Eye Care", "source": "OpenGovernmentData"}}, {"type": "node", "id": 6784704194, "lat": 17.0072499, "lon": 81.7891205, "tags": {"addr:district": "East Godavari", "addr:full": "H.No: 75-6-18, Prakash Nagar Main Road, Near Prakash Nagar Round Park.", "addr:postcode": "533103", "addr:state": "Andhra Pradesh", "amenity": "hospital", "contact:email": "info@pragatiivf.com", "contact:mobile": "8790628082", "contact:phone": "0883-2440397", "name": "Pragati Super Speciality Hospital", "opening_hours": "24/7", "source": "OpenGovernmentData"}}, {"type": "node", "id": 6786873811, "lat": 17.0084144, "lon": 81.7880402, "tags": {"addr:district": "East Godavari", "addr:full": "H.No: 74-11-7, Prakash Nagar, East Godavari", "addr:postcode": "533103", "addr:state": "Andhra Pradesh", "amenity": "hospital", "fax": "2431562", "name": "Alert Emergency Hospital", "source": "OpenGovernmentData"}}, {"type": "node", "id": 6786899164, "lat": 17.0061406, "lon": 81.7817049, "tags": {"addr:district": "East Godavari", "addr:full": "H.No: 46-12-29, Sagar Hospital, Danvaipeta, Rajahmundry.", "addr:postcode": "533103", "addr:state": "Andhra Pradesh", "amenity": "hospital", "contact:email": "support@nesthospital.in", "contact:mobile": "8832433833", "contact:phone": "0883 - 2433833, 2433834", "fax": "0883 2433837", "name": "NEST Sagar Hospital", "opening_hours": "24/7", "source": "OpenGovernmentData", "website": "http://www.nesthospital.in/"}}, {"type": "node", "id": 6792329464, "lat": 17.0053173, "lon": 81.7804375, "tags": {"addr:district": "East Godavari", "addr:full": "Danavaipet", "addr:postcode": "533103", "addr:state": "Andhra Pradesh", "amenity": "hospital", "contact:phone": "2446957", "name": "Sri Suguna Childrens Hospital", "source": "OpenGovernmentData"}}, {"type": "node", "id": 6798230897, "lat": 17.0081938, "lon": 81.7866153, "tags": {"addr:district": "East Godavari", "addr:full": "H.No: 75-1-18, Prakash Nagar", "addr:postcode": "533103", "addr:state": "Andhra Pradesh", "amenity": "hospital", "contact:phone": "2468110", "name": "Rajahmundry Orthopedic Hospital", "opening_hours": "24/7", "source": "OpenGovernmentData"}}, {"type": "node", "id": 6801263539, "lat": 17.0118783, "lon": 81.7712684, "tags": {"addr:district": "East Godavari", "addr:full": "D.No: 12-20-4/1, Near Gokavaram Bus Stand, Opp: Hotel Lalitha Mahal, Aryapuram Middle Street, Rajamundry", "addr:postcode": "533105", "addr:state": "Andhra Pradesh", "amenity": "hospital", "contact:mobile": "8832470033", "name": "Sai Hospital", "opening_hours": "24/7", "source": "OpenGovernmentData"}}, {"type": "node", "id": 6804952464, "lat": 17.0062958, "lon": 81.7819034, "tags": {"addr:district": "East Godavari", "addr:full": "D.No: 46-18-8/2 , Danavai Peta", "addr:postcode": "533103", "addr:state": "Andhra Pradesh", "amenity": "hospital", "contact:phone": "2465533", "fax": "2465533", "name": "Swetha Hospitals", "opening_hours": "24/7", "source": "OpenGovernmentData"}}, {"type": "node", "id": 7088103748, "lat": 17.0113277, "lon": 81.8086849, "tags": {"amenity": "hospital", "healthcare": "hospital", "name": "Delta hospital"}}, {"type": "node", "id": 7108780985, "lat": 17.0112916, "lon": 81.8086885, "tags": {"amenity": "hospital", "name": "Delta hospital"}}, {"type": "node", "id": 7115882849, "lat": 17.0348822, "lon": 81.6893175}, {"type": "node", "id": 7115882850, "lat": 17.0349643, "lon": 81.6896233}, {"type": "node", "id": 7115882851, "lat": 17.0353926, "lon": 81.6894999}, {"type": "node", "id": 7115882852, "lat": 17.0353208, "lon": 81.6892022}, {"type": "node", "id": 7790661650, "lat": 16.9471229, "lon": 81.7777694, "tags": {"addr:district": "East Godavari", "addr:full": "Dhavaleswaram, Rajahmundry", "addr:postcode": "533125", "addr:state": "Andhra Pradesh", "amenity": "hospital", "name": "Sri Datta Ayurvedic Hospital", "source": "Local Knowledge"}}, {"type": "node", "id": 7790661652, "lat": 16.9767784, "lon": 81.7836232, "tags": {"addr:district": "East Godavari", "addr:full": "Alcot Gardens, Rajahmundry", "addr:postcode": "533101", "addr:state": "Andhra Pradesh", "amenity": "hospital", "name": "Aditya Multi Specialty Ayurvedic Hospital", "source": "Local Knowledge"}}, {"type": "node", "id": 7790661653, "lat": 17.00735, "lon": 81.7918325, "tags": {"addr:district": "East Godavari", "addr:full": "Syamala Nagar, Gandhipuram, Rajahmundry", "addr:postcode": "533103", "addr:state": "Andhra Pradesh", "amenity": "hospital", "name": "Ascent Cancer And Multispeciality Hospital", "source": "Local Knowledge"}}, {"type": "node", "id": 7790661654, "lat": 17.007125, "lon": 81.788836, "tags": {"addr:district": "East Godavari", "addr:full": "Prakasam Nagar, Rajahmundry", "addr:postcode": "533103", "addr:state": "Andhra Pradesh", "amenity": "hospital", "name": "GSR Neuro Speciality Hospital", "source": "Local Knowledge"}}, {"type": "node", "id": 7790661655, "lat": 17.0115704, "lon": 81.7709901, "tags": {"addr:district": "East Godavari", "addr:full": "Seshayya Metta, Rajahmundry", "addr:postcode": "533101", "addr:state": "Andhra Pradesh", "amenity": "hospital", "name": "Sai Super Speciality Hospital", "source": "Local Knowledge"}}, {"type": "node", "id": 7790661660, "lat": 17.0004861, "lon": 81.7766588, "tags": {"addr:district": "East Godavari", "addr:full": "Pallapuveedhi, Kothapeta, Rajahmundry", "addr:postcode": "533101", "addr:state": "Andhra Pradesh", "amenity": "hospital", "name": "Prasuthi Hospital", "source": "Local Knowledge"}}, {"type": "node", "id": 7790661661, "lat": 16.9574786, "lon": 81.7837062, "tags": {"addr:district": "East Godavari", "addr:full": "Dhavaleswaram, Rajahmundry", "addr:postcode": "533125", "addr:state": "Andhra Pradesh", "amenity": "hospital", "name": "Santharam Hospital", "source": "Local Knowledge"}}, {"type": "node", "id": 7790661662, "lat": 16.9823377, "lon": 81.7845723, "tags": {"addr:district": "East Godavari", "addr:full": "Navabharat Nagar, Rajahmundry", "addr:postcode": "533101", "addr:state": "Andhra Pradesh", "amenity": "hospital", "name": "Railway Hospital", "source": "Local Knowledge"}}, {"type": "node", "id": 7790661663, "lat": 17.0060882, "lon": 81.7823433, "tags": {"addr:district": "East Godavari", "addr:full": "Danavai Peta, Rajahmundry", "addr:postcode": "533103", "addr:state": "Andhra Pradesh", "amenity": "hospital", "name": "Jabilli Children's Hospital", "source": "Local Knowledge"}}, {"type": "node", "id": 7790661664, "lat": 17.0021704, "lon": 81.7776938, "tags": {"addr:district": "East Godavari", "addr:full": "Kothapeta, Rajahmundry", "addr:postcode": "533101", "addr:state": "Andhra Pradesh", "amenity": "hospital", "name": "Annasa Adinarayana Ayurvedic Hospital", "source": "Local Knowledge"}}, {"type": "node", "id": 7790661665, "lat": 17.0064855, "lon": 81.7833234, "tags": {"addr:district": "East Godavari", "addr:full": "Danavai Peta, Rajahmundry", "addr:postcode": "533103", "addr:state": "Andhra Pradesh", "amenity": "hospital", "healthcare": "hospital", "name": "Sri Suryachandra Homeo Hospital", "source": "Local Knowledge"}}, {"type": "node", "id": 7790661668, "lat": 16.9488045, "lon": 81.7816228, "tags": {"addr:district": "East Godavari", "addr:full": "VGTPS Colony, Dhavaleswaram, Rajahmundry", "addr:postcode": "533125", "addr:state": "Andhra Pradesh", "amenity": "hospital", "name": "Mallika Dental Hospital", "source": "Local Knowledge"}}, {"type": "node", "id": 7790661670, "lat": 17.0141042, "lon": 81.7800405, "tags": {"addr:district": "East Godavari", "addr:full": "Nakkina Street, Ganesh Nagar, Rajahmundry", "addr:postcode": "533101", "addr:state": "Andhra Pradesh", "amenity": "hospital", "name": "G Sambasiva Reddy Hospital", "source": "Local Knowledge"}}, {"type": "node", "id": 7790661674, "lat": 16.9953163, "lon": 81.7732768, "tags": {"addr:district": "East Godavari", "addr:full": "Tyagaraja Nagar, Rajahmundry", "addr:postcode": "533101", "addr:state": "Andhra Pradesh", "amenity": "hospital", "name": "SR Trust Hospital", "source": "Local Knowledge"}}, {"type": "node", "id": 7790661679, "lat": 17.0121798, "lon": 81.7949395, "tags": {"addr:district": "East Godavari", "addr:full": "Prakasam Nagar, Rajahmundry", "addr:postcode": "533106", "addr:state": "Andhra Pradesh", "amenity": "hospital", "name": "Vivek Hospital", "source": "Local Knowledge"}}, {"type": "node", "id": 7790661681, "lat": 17.009068, "lon": 81.780949, "tags": {"addr:district": "East Godavari", "addr:full": "Jampet, Rajahmundry", "addr:postcode": "533101", "addr:state": "Andhra Pradesh", "amenity": "hospital", "name": "Sri Ramachandra Hospital", "source": "Local Knowledge"}}, {"type": "node", "id": 7790661684, "lat": 17.0220352, "lon": 81.7892576, "tags": {"addr:district": "East Godavari", "addr:full": "Bhaskar Nagar, Rajahmundry", "addr:postcode": "533105", "addr:state": "Andhra Pradesh", "amenity": "hospital", "healthcare": "hospital", "name": "Tholat Memorial Hospital", "source": "Local Knowledge"}}, {"type": "node", "id": 7790661686, "lat": 17.0298024, "lon": 81.7859276, "tags": {"addr:district": "East Godavari", "addr:full": "Rajahmundry", "addr:postcode": "533105", "addr:state": "Andhra Pradesh", "amenity": "hospital", "name": "Ankitha Children's Hospital", "source": "Local Knowledge"}}, {"type": "node", "id": 7790661687, "lat": 17.007024, "lon": 81.788993, "tags": {"addr:district": "East Godavari", "addr:full": "Prakasam Nagar, Rajahmundry", "addr:postcode": "533103", "addr:state": "Andhra Pradesh", "amenity": "hospital", "name": "Haritha Hospital", "source": "Local Knowledge"}}, {"type": "node", "id": 7790661688, "lat": 17.0075484, "lon": 81.7739625, "tags": {"addr:district": "East Godavari", "addr:full": "Laxmivarapu Peta, Rajahmundry", "addr:postcode": "533104", "addr:state": "Andhra Pradesh", "amenity": "hospital", "name": "Rajendra Prasad Skin Hospital", "source": "Local Knowledge"}}, {"type": "node", "id": 7790661690, "lat": 16.9292537, "lon": 81.7942874, "tags": {"addr:district": "East Godavari", "addr:full": "Vemagiri, Rajahmundry", "addr:postcode": "533125", "addr:state": "Andhra Pradesh", "amenity": "hospital", "name": "Gouthami Hospital", "source": "Local Knowledge"}}, {"type": "node", "id": 7790661693, "lat": 17.00699, "lon": 81.789588, "tags": {"addr:district": "East Godavari", "addr:full": "Prakasam Nagar, Rajahmundry", "addr:postcode": "533103", "addr:state": "Andhra Pradesh", "amenity": "hospital", "name": "Pawan Chest Hospital", "source": "Local Knowledge"}}, {"type": "node", "id": 7790661697, "lat": 17.0192985, "lon": 81.7736461, "tags": {"addr:district": "East Godavari", "addr:full": "Seethampet, Rajahmundry", "addr:postcode": "533104", "addr:state": "Andhra Pradesh", "amenity": "hospital", "name": "Krishnaveni Hospital", "source": "Local Knowledge"}}, {"type": "node", "id": 7790661702, "lat": 17.0449069, "lon": 81.7955703, "tags": {"addr:district": "East Godavari", "addr:full": "Konthamuru, Rajahmundry", "addr:postcode": "533102", "addr:state": "Andhra Pradesh", "amenity": "hospital", "name": "Rainbow Physiotherapy Hospital", "source": "Local Knowledge"}}, {"type": "node", "id": 7790661705, "lat": 16.9751759, "lon": 81.7869708, "tags": {"addr:district": "East Godavari", "addr:full": "Sambhu Nagar, Alcot Gardens, Rajahmundry", "addr:postcode": "533101", "addr:state": "Andhra Pradesh", "amenity": "hospital", "name": "Amma Hospital", "source": "Local Knowledge"}}, {"type": "node", "id": 7790661706, "lat": 16.9508779, "lon": 81.7867723, "tags": {"addr:district": "East Godavari", "addr:full": "Cotton Peta, Dhavaleswaram, Rajahmundry", "addr:postcode": "533125", "addr:state": "Andhra Pradesh", "amenity": "hospital", "name": "CEM Hospital", "source": "Local Knowledge"}}, {"type": "node", "id": 7790661707, "lat": 17.017073, "lon": 81.781944, "tags": {"addr:district": "East Godavari", "addr:full": "Jaya Krishnapuram, Rajahmundry", "addr:postcode": "533105", "addr:state": "Andhra Pradesh", "amenity": "hospital", "name": "Vaddadi Hospital", "source": "Local Knowledge"}}, {"type": "node", "id": 7790661709, "lat": 17.0077644, "lon": 81.7736563, "tags": {"addr:district": "East Godavari", "addr:full": "Lakshmivarapu Peta, Seshayya Metta, Rajahmundry", "addr:postcode": "533101", "addr:state": "Andhra Pradesh", "amenity": "hospital", "name": "Satya Sai Hospital", "source": "Local Knowledge"}}, {"type": "node", "id": 7790661710, "lat": 17.0079572, "lon": 81.7733805, "tags": {"addr:district": "East Godavari", "addr:full": "Lakshmivarapu Pet, Seshayya Metta, Rajahmundry", "addr:postcode": "533101", "addr:state": "Andhra Pradesh", "amenity": "hospital", "name": "Prasad Neuro Hospitals", "source": "Local Knowledge"}}, {"type": "node", "id": 7791668554, "lat": 17.016916, "lon": 81.731913, "tags": {"addr:district": "West Godavari", "addr:full": "Kovvur", "addr:postcode": "534350", "addr:state": "Andhra Pradesh", "amenity": "hospital", "name": "Dr. Kota Papa Rao Memorial Homeo Hospital", "source": "Local Knowledge"}}, {"type": "node", "id": 7791668564, "lat": 17.0167706, "lon": 81.7330598, "tags": {"addr:district": "West Godavari", "addr:full": "Kovvur", "addr:postcode": "534350", "addr:state": "Andhra Pradesh", "amenity": "hospital", "name": "Sri Krishna Hospital", "source": "Local Knowledge"}}, {"type": "node", "id": 7791668571, "lat": 17.0213157, "lon": 81.728211, "tags": {"addr:district": "West Godavari", "addr:full": "Kovvur", "addr:postcode": "534350", "addr:state": "Andhra Pradesh", "amenity": "hospital", "name": "Sravanthi Multi Speciality Dental Hospital", "source": "Local Knowledge"}}, {"type": "node", "id": 7791668604, "lat": 17.0150759, "lon": 81.7335799, "tags": {"addr:district": "West Godavari", "addr:full": "Kovvur", "addr:postcode": "534350", "addr:state": "Andhra Pradesh", "amenity": "hospital", "name": "Goverment Hospital", "source": "Local Knowledge"}}, {"type": "node", "id": 7791668610, "lat": 17.0178086, "lon": 81.7290663, "tags": {"addr:district": "West Godavari", "addr:full": "Kovvur", "addr:postcode": "534350", "addr:state": "Andhra Pradesh", "amenity": "hospital", "name": "Sri Sai Bhavani Hospital", "source": "Local Knowledge"}}, {"type": "node", "id": 7791668616, "lat": 17.0128398, "lon": 81.7281519, "tags": {"addr:district": "West Godavari", "addr:full": "Kovvur", "addr:postcode": "534350", "addr:state": "Andhra Pradesh", "amenity": "hospital", "name": "J.M. Sai Gayatri Hospital", "source": "Local Knowledge"}}, {"type": "node", "id": 7791668623, "lat": 17.021228, "lon": 81.728169, "tags": {"addr:district": "West Godavari", "addr:full": "Kovvur", "addr:postcode": "534350", "addr:state": "Andhra Pradesh", "amenity": "hospital", "name": "Sri Sai Dental Hospital", "source": "Local Knowledge"}}, {"type": "node", "id": 8763389376, "lat": 17.0040899, "lon": 81.7901351, "tags": {"addr:district": "Prakasham", "addr:full": "Pahar Ganj", "addr:postcode": "533103", "addr:state": "Andhra Pradesh", "amenity": "hospital", "name": "Sri Sanjeevini Hospital", "source": "Local Knowledge"}}, {"type": "node", "id": 8794053510, "lat": 17.0078232, "lon": 81.7740767, "tags": {"addr:district": "East Godavari", "addr:full": "29-14-29, Lakshmivarapupeta, Devi Chowk Circle, Rajahmundry", "addr:postcode": "533104", "addr:state": "Andhra Pradesh", "amenity": "hospital", "name": "Universal Hospitals Rajahmundry", "source": "Local Knowledge"}}, {"type": "node", "id": 8794072842, "lat": 17.0069992, "lon": 81.7859146, "tags": {"addr:district": "East Godavari", "addr:full": "7-2, Prakasam Nagar, Rajahmundry", "addr:postcode": "533103", "addr:state": "Andhra Pradesh", "amenity": "hospital", "name": "Sri Santhi Ent Hospital", "source": "Local Knowledge"}}, {"type": "node", "id": 8794616540, "lat": 17.0054712, "lon": 81.7859146, "tags": {"addr:district": "East Godavari", "addr:full": "76-4-22, Meduri, Rajahmundry", "addr:postcode": "533103", "addr:state": "Andhra Pradesh", "amenity": "hospital", "name": "R.S Neuro Care Hospital", "source": "Local Knowledge"}}, {"type": "node", "id": 8794771773, "lat": 17.0101944, "lon": 81.7946371, "tags": {"addr:district": "East Godavari", "addr:full": "9-8, Sheela Nagar, Addepalli Colony, Rajahmundry", "addr:postcode": "533103", "addr:state": "Andhra Pradesh", "amenity": "hospital", "name": "Agarwals Eye Hospital, Rajahmundry", "source": "Local Knowledge"}}, {"type": "node", "id": 8794834832, "lat": 17.0058168, "lon": 81.7857476, "tags": {"addr:district": "East Godavari", "addr:full": "Gandhipuram, Rajahmundry", "addr:postcode": "533103", "addr:state": "Andhra Pradesh", "amenity": "hospital", "name": "Gandhi Hospital", "source": "Local Knowledge"}}, {"type": "node", "id": 8794932448, "lat": 17.005475, "lon": 81.782295, "tags": {"addr:district": "East Godavari", "addr:full": "Danavai Peta, Rajahmundry", "addr:postcode": "533101", "addr:state": "Andhra Pradesh", "amenity": "hospital", "name": "vijay hospital", "source": "Local Knowledge"}}, {"type": "node", "id": 12257908002, "lat": 17.0052873, "lon": 81.7828325, "tags": {"amenity": "hospital", "name": "Varun Gastro & Liver care", "phone": "08008414005"}}, {"type": "node", "id": 12270522002, "lat": 17.0199901, "lon": 81.7778139, "tags": {"amenity": "hospital", "emergency": "yes", "healthcare": "hospital", "name": "Ravi Chaitanya Kidney And Children's Hospital", "website": "https://ravichaitanyahospitals.com/"}}, {"type": "node", "id": 12270870691, "lat": 17.0052336, "lon": 81.7846816, "tags": {"amenity": "hospital", "healthcare": "hospital", "level": "1", "name": "Dr Mohans International dentist hospital"}}, {"type": "node", "id": 12270870694, "lat": 17.0050831, "lon": 81.7853301, "tags": {"amenity": "hospital", "healthcare": "hospital", "level": "1", "name": "London IVF"}}, {"type": "node", "id": 12270882990, "lat": 17.0058595, "lon": 81.7850352, "tags": {"amenity": "hospital", "healthcare": "hospital", "level": "1", "name": "Raksha Hospital Grounds"}}, {"type": "node", "id": 12270884097, "lat": 17.0062738, "lon": 81.7864526, "tags": {"amenity": "hospital", "healthcare": "hospital", "name": "Jupiter hospitals"}}, {"type": "node", "id": 12270888472, "lat": 17.0058743, "lon": 81.7840843, "tags": {"amenity": "hospital", "healthcare": "hospital", "level": "0;1", "name": "Kify Hospitals"}}, {"type": "node", "id": 12316733885, "lat": 17.0437827, "lon": 81.8439277, "tags": {"amenity": "hospital", "healthcare": "hospital"}}, {"type": "node", "id": 13179906382, "lat": 17.009316, "lon": 81.7759557, "tags": {"amenity": "hospital", "healthcare": "hospital", "name": "lakshmi clinic"}}, {"type": "way", "id": 198879112, "nodes": [2089599680, 2089599770, 2089599766, 2089599687, 2089599680], "tags": {"addr:city": "Rajahmundry", "addr:housename": "Annapurna Hospitals", "addr:housenumber": "17-9-14", "addr:postcode": "533104", "addr:street": "Seethampeta", "amenity": "hospital", "building": "yes", "description": "Doctors at the hospital: Dr. Suryanarayana Kasturi, Dr. Sharma Kasturi, Dr. Sarada Kasturi, Dr. Ram Mohan Kasturi, Dr. Vijaya Kasturi", "emergency": "yes", "healthcare": "hospital", "healthcare:speciality": "anaesthetics;general;surgery;endocrinology;otolaryngology", "name": "Annapurna Hospitals", "opening_hours": "24/7", "wheelchair": "yes"}}, {"type": "way", "id": 205584879, "nodes": [2155590454, 2155590496, 2155590517, 2155590478, 2155590453, 2155590450, 2155590443, 2155590454], "tags": {"addr:housenumber": "25-3-3", "addr:street": "MANDRETIVARI STREET", "amenity": "hospital", "designation": "25-3-3", "name": "DR.RAMA'S INSTITUTE FOR FERTILITY"}}, {"type": "way", "id": 320914929, "nodes": [3276208855, 3276208857, 3276208858, 3276208859, 3276208855], "tags": {"amenity": "hospital", "building": "yes", "name": "Atthili hospital"}}, {"type": "way", "id": 721536104, "nodes": [6768749182, 6768749181, 6768749180, 6768749179, 6768749182], "tags": {"amenity": "hospital", "healthcare": "hospital", "name": "Aruna Hospital"}}, {"type": "way", "id": 761619704, "nodes": [7115882852, 7115882851, 7115882850, 7115882849, 7115882852], "tags": {"amenity": "hospital", "name": "PHC"}}]}