{"version": 0.6, "generator": "Overpass API 0.7.62.8 e802775f", "osm3s": {"timestamp_osm_base": "2025-12-09T14:50:54Z", "copyright": "The data included in this document is from www.openstreetmap.org. The data is made available under ODbL."}, "elements": [{"type": "node", "id": 6830428446, "lat": 16.8486185, "lon": 79.9986632, "tags": {"addr:district": "Suryapet", "addr:full": "Beside Bethel prayer house, Ramapuram, Telangana", "addr:postcode": "508246", "addr:state": "Telangana", "amenity": "hospital", "name": "PRIYA CEMENT FREE PRIMARY HOSPITAL", "opening_hours": "24/7", "operator:type": "private", "source": "OpenGovernmentData"}}, {"type": "node", "id": 7793151866, "lat": 16.7689261, "lon": 80.2837231, "tags": {"addr:district": "Krishna", "addr:full": "Nandigama", "addr:postcode": "521185", "addr:state": "Andhra Pradesh", "amenity": "hospital", "name": "Prashanthi Hospital", "source": "Local Knowledge"}}, {"type": "node", "id": 7793151869, "lat": 16.7719987, "lon": 80.284916, "tags": {"addr:district": "Krishna", "addr:full": "Nandigama", "addr:postcode": "521185", "addr:state": "Andhra Pradesh", "amenity": "hospital", "name": "Sri Pujitha Hospital", "source": "Local Knowledge"}}, {"type": "node", "id": 7793151870, "lat": 16.7713358, "lon": 80.2849006, "tags": {"addr:district": "Krishna", "addr:full": "Nandigama", "addr:postcode": "521185", "addr:state": "Andhra Pradesh", "amenity": "hospital", "name": "Sai Balaji Hospital", "source": "Local Knowledge"}}, {"type": "node", "id": 7793151881, "lat": 16.767587, "lon": 80.288234, "tags": {"addr:district": "Krishna", "addr:full": "Rythupeta, Nandigama", "addr:postcode": "521185", "addr:state": "Andhra Pradesh", "amenity": "hospital", "name": "Seetaravamma Hospital", "source": "Local Knowledge"}}, {"type": "node", "id": 7793151897, "lat": 16.7732383, "lon": 80.2894509, "tags": {"addr:district": "Krishna", "addr:full": "Nandigama", "addr:postcode": "522185", "addr:state": "Andhra Pradesh", "amenity": "hospital", "name": "SV Hospital", "source": "Local Knowledge"}}, {"type": "node", "id": 7793151904, "lat": 16.7727915, "lon": 80.2884525, "tags": {"addr:district": "Krishna", "addr:full": "Nandigama", "addr:postcode": "521185", "addr:state": "Andhra Pradesh", "amenity": "hospital", "name": "Sri Vaishnavi Hospital", "source": "Local Knowledge"}}, {"type": "node", "id": 7793151907, "lat": 16.7721568, "lon": 80.2811831, "tags": {"addr:district": "Krishna", "addr:full": "Nehru Nagar, Nandigama", "addr:postcode": "521185", "addr:state": "Andhra Pradesh", "amenity": "hospital", "name": "Mamatha Children's Hospital", "source": "Local Knowledge"}}, {"type": "node", "id": 7793151914, "lat": 16.7721228, "lon": 80.2842834, "tags": {"addr:district": "Krishna", "addr:full": "Nandigama", "addr:postcode": "521185", "addr:state": "Andhra Pradesh", "amenity": "hospital", "name": "Sai Sameera Hospital", "source": "Local Knowledge"}}, {"type": "node", "id": 7793151918, "lat": 16.7656147, "lon": 80.2906826, "tags": {"addr:district": "Krishna", "addr:full": "Raithupeta, Nandigama", "addr:postcode": "521185", "addr:state": "Andhra Pradesh", "amenity": "hospital", "name": "Mother Theressa Hospital", "source": "Local Knowledge"}}, {"type": "node", "id": 7793151921, "lat": 16.7682353, "lon": 80.2833868, "tags": {"addr:district": "Krishna", "addr:full": "Sri Ramalingeswara Nagar, Nandigama", "addr:postcode": "521185", "addr:state": "Andhra Pradesh", "amenity": "hospital", "name": "Amrutha Hospital", "source": "Local Knowledge"}}, {"type": "node", "id": 8775392740, "lat": 16.7736225, "lon": 80.22816, "tags": {"addr:district": "Krishna", "addr:full": "Lingalapadu", "addr:postcode": "521185", "addr:state": "Andhra Pradesh", "amenity": "hospital", "name": "Government Hospital, Lingalapadu", "source": "Local Knowledge"}}]}