{"version": 0.6, "generator": "Overpass API 0.7.62.8 e802775f", "osm3s": {"timestamp_osm_base": "2025-12-09T14:12:11Z", "copyright": "The data included in this document is from www.openstreetmap.org. The data is made available under ODbL."}, "elements": [{"type": "node", "id": 6798043369, "lat": 16.5273249, "lon": 80.5949809, "tags": {"addr:district": "Krishna", "addr:full": "Sabapathi Road, Swathi Centre , Bhavanipuram.", "addr:postcode": "520012", "addr:state": "Andhra Pradesh", "amenity": "hospital", "check_date": "2025-07-11", "contact:phone": "2414545", "name": "Lata Hospital", "opening_hours": "24/7", "source": "OpenGovernmentData"}}, {"type": "node", "id": 7793324105, "lat": 16.5410449, "lon": 80.5804813, "tags": {"addr:district": "Krishna", "addr:full": "Gollapudi, Vijayawada", "addr:postcode": "521225", "addr:state": "Andhra Pradesh", "amenity": "hospital", "name": "Rangaiah Gari Hospital", "source": "Local Knowledge"}}, {"type": "node", "id": 7793324112, "lat": 16.536288, "lon": 80.584688, "tags": {"addr:district": "Krishna", "addr:full": "Gollapudi, Vijayawada", "addr:postcode": "521225", "addr:state": "Andhra Pradesh", "amenity": "hospital", "check_date": "2025-07-11", "name": "Andhra Hospitals", "source": "Local Knowledge"}}, {"type": "node", "id": 7793324141, "lat": 16.5264661, "lon": 80.593686, "tags": {"addr:district": "Krishna", "addr:full": "Vijayawada", "addr:postcode": "520012", "addr:state": "Andhra Pradesh", "amenity": "hospital", "name": "Vindhya Hospital", "source": "Local Knowledge"}}, {"type": "node", "id": 7793324142, "lat": 16.5385074, "lon": 80.5817653, "tags": {"addr:district": "Krishna", "addr:full": "Gollapudi", "addr:postcode": "521225", "addr:state": "Andhra Pradesh", "amenity": "hospital", "name": "Asha Hospital", "source": "Local Knowledge"}}, {"type": "node", "id": 7793324145, "lat": 16.526523, "lon": 80.594019, "tags": {"addr:district": "Krishna", "addr:full": "Vijayawada", "addr:postcode": "520012", "addr:state": "Andhra Pradesh", "amenity": "hospital", "check_date": "2025-07-11", "name": "Sloka Hospitals", "source": "Local Knowledge"}}, {"type": "node", "id": 11980751353, "lat": 16.4826455, "lon": 80.5758471, "tags": {"amenity": "hospital", "healthcare": "hospital", "name": "Medical Shop"}}, {"type": "node", "id": 12625472650, "lat": 16.4826553, "lon": 80.576576, "tags": {"amenity": "hospital", "healthcare": "hospital", "name": "RMP hospital"}}, {"type": "node", "id": 12625472655, "lat": 16.4825818, "lon": 80.5763245, "tags": {"amenity": "hospital", "healthcare": "hospital", "name": "RMP hospital"}}]}