{"version": 0.6, "generator": "Overpass API 0.7.62.8 e802775f", "osm3s": {"timestamp_osm_base": "2025-12-09T14:19:14Z", "copyright": "The data included in this document is from www.openstreetmap.org. The data is made available under ODbL."}, "elements": [{"type": "node", "id": 2392796964, "lat": 15.5139042, "lon": 80.0450924, "tags": {"addr:district": "Prakasam", "addr:full": "Satyanarayana Puram, Ongole", "addr:postcode": "523001", "addr:state": "Andhra Pradesh", "amenity": "hospital", "name": "vijetha nursing home", "source": "Local Knowledge"}}, {"type": "node", "id": 4238854006, "lat": 15.5106195, "lon": 80.0375001, "tags": {"addr:housenumber": "20-7-55", "addr:postcode": "523002", "addr:street": "Sundaraiah bavan road", "amenity": "hospital", "name": "Srinivasa hospital"}}, {"type": "node", "id": 4242596694, "lat": 15.5050529, "lon": 80.0299742, "tags": {"amenity": "hospital", "name": "Durga"}}, {"type": "node", "id": 6758885988, "lat": 15.5048861, "lon": 80.0513783, "tags": {"addr:district": "Prakasam", "addr:full": "K P Road K P Road Ongole", "addr:postcode": "523001", "addr:state": "Andhra Pradesh", "amenity": "hospital", "contact:phone": "08592 232 923", "email": "nallurinursinghome@gmail.com", "name": "Nalluri Nursing Home", "opening_hours": "24/7", "source": "OpenGovernmentData", "website": "https://www.nallurinursinghome.com/"}}, {"type": "node", "id": 6760985232, "lat": 15.5138119, "lon": 80.0416097, "tags": {"addr:district": "Prakasam", "addr:full": "Kurnool Road , Opp- Ars Rtc Bus Stand , Ongole", "addr:postcode": "523001", "addr:state": "Andhra Pradesh", "amenity": "hospital", "name": "Venkata Ramana Nursing Home", "source": "OpenGovernmentData"}}, {"type": "node", "id": 6761008606, "lat": 15.5066844, "lon": 80.0356418, "tags": {"addr:district": "Kurnool", "addr:full": "Ongole", "addr:postcode": "523001", "addr:state": "Andhra Pradesh", "amenity": "hospital", "check_date": "2024-03-26", "name": "Dr.Bethune Nursing Home", "opening_hours": "24/7", "source": "OpenGovernmentData"}}, {"type": "node", "id": 6761037732, "lat": 15.5128226, "lon": 80.0405107, "tags": {"addr:district": "Prakasam", "addr:full": "H.No: 37-1-169/60 Near Rtc Bus Stand Kurnool Road Ongole", "addr:postcode": "523001", "addr:state": "Andhra Pradesh", "amenity": "hospital", "healthcare": "hospital", "name": "Aravind Eye Hospital ongole", "source": "OpenGovernmentData"}}, {"type": "node", "id": 6768504381, "lat": 15.5131825, "lon": 80.035623, "tags": {"addr:district": "Prakasam", "addr:full": "Kurnool Road, Near Ongole RTC Bus Stand", "addr:postcode": "523002", "addr:state": "Andhra Pradesh", "amenity": "hospital", "name": "Sevita Nursing Home", "opening_hours": "24/7", "source": "OpenGovernmentData"}}, {"type": "node", "id": 6768515749, "lat": 15.51039, "lon": 80.0383032, "tags": {"addr:district": "Prakasam", "addr:full": "H.No: 20-6-1/138(2), Anjaiah Road, Ongole", "addr:postcode": "523002", "addr:state": "Andhra Pradesh", "amenity": "hospital", "check_date": "2024-03-30", "contact:phone": "239069", "fax": "282522", "name": "Durga Nursing Home- Anjaiah Road", "opening_hours": "24/7", "source": "OpenGovernmentData"}}, {"type": "node", "id": 6768537965, "lat": 15.5119123, "lon": 80.0400245, "tags": {"addr:district": "Prakasam", "addr:full": "Sundaraiah Bhavan Road, Near R.T.C. Bus Stand Ongole", "addr:postcode": "523001", "addr:state": "Andhra Pradesh", "amenity": "hospital", "healthcare": "hospital", "name": "Samatha Hospital ongole", "source": "OpenGovernmentData"}}, {"type": "node", "id": 6770977184, "lat": 15.5112028, "lon": 80.0362346, "tags": {"addr:district": "Prakasam", "addr:full": "Anjaiah Road, Near Rtc Bus Stand", "addr:postcode": "523001", "addr:state": "Andhra Pradesh", "amenity": "hospital", "contact:phone": "8592230900", "fax": "23090", "name": "Ravi Mother and Child Hospital", "opening_hours": "24/7", "source": "OpenGovernmentData"}}, {"type": "node", "id": 6776001071, "lat": 15.5172104, "lon": 80.033606, "tags": {"addr:district": "Prakasam", "addr:full": "Opp: Navabharath Buildings, Kurnool Road, Ongole", "addr:postcode": "523002", "addr:state": "Andhra Pradesh", "amenity": "hospital", "name": "Devi Hospital", "source": "OpenGovernmentData"}}, {"type": "node", "id": 6776396554, "lat": 15.5108429, "lon": 80.0379881, "tags": {"addr:district": "Prakasam", "addr:full": "Bramarachari Street, Ajnaiah Road, Ongole", "addr:postcode": "523002", "addr:state": "Andhra Pradesh", "amenity": "hospital", "contact:phone": "222405", "name": "Pranathi Neuro Speciality Hospital", "source": "OpenGovernmentData"}}, {"type": "node", "id": 6778548829, "lat": 15.5107531, "lon": 80.0353588, "tags": {"addr:district": "Prakasam", "addr:full": "H.No: 37 - 1 - 169/57/C, Sundaraiah Bhavan Road", "addr:postcode": "523001", "addr:state": "Andhra Pradesh", "amenity": "hospital", "contact:phone": "8592221145", "name": "G S R Hospital", "source": "OpenGovernmentData"}}, {"type": "node", "id": 6778998161, "lat": 15.5152592, "lon": 80.0353588, "tags": {"addr:district": "Prakasam", "addr:full": "Opp: Rcm Church Kurnool Road", "addr:postcode": "523002", "addr:state": "Andhra Pradesh", "amenity": "hospital", "contact:phone": "8592233056", "name": "St Xaviers Hospital", "opening_hours": "24/7", "source": "OpenGovernmentData"}}, {"type": "node", "id": 6781937796, "lat": 15.5108306, "lon": 80.0430635, "tags": {"addr:district": "Prakasam", "addr:full": "East To RTC Bus-Stand, New Vegetable Market Road", "addr:postcode": "523002", "addr:state": "Andhra Pradesh", "amenity": "hospital", "contact:phone": "08592 - 282848", "fax": "283131", "name": "Yamini Eye Care - Prakasam", "source": "OpenGovernmentData"}}, {"type": "node", "id": 6787401745, "lat": 15.5054386, "lon": 80.0324151, "tags": {"addr:district": "Prakasam", "addr:full": "H.No: 7/13/1, Lawyerpet, 5th Lane Extension", "addr:postcode": "523002", "addr:state": "Andhra Pradesh", "amenity": "hospital", "contact:phone": "8592220522", "fax": "8592223523", "name": "Modern Eye Hospital And Research Centre", "source": "OpenGovernmentData"}}, {"type": "node", "id": 6787639567, "lat": 15.5122353, "lon": 80.0396544, "tags": {"addr:district": "Prakasam", "addr:full": "Lambadi Donka Road, Near Aditya Schoo,l Ongole.", "addr:postcode": "523002", "addr:state": "Andhra Pradesh", "amenity": "hospital", "contact:mobile": "85922 3957", "name": "Manasa Mother and Child Hospital", "opening_hours": "24/7", "source": "OpenGovernmentData"}}, {"type": "node", "id": 6789521773, "lat": 15.510673, "lon": 80.0393875, "tags": {"addr:district": "Prakasam", "addr:full": "D.No: 20-7-62, Sundarayya Bhavan Road,near APSRTC Depo, Brundavan Nagar,Ongole", "addr:postcode": "523002", "addr:state": "Andhra Pradesh", "amenity": "hospital", "check_date": "2024-03-30", "contact:phone": "8592223036", "healthcare": "hospital", "name": "Chandamama Children Hospital ongole", "opening_hours": "24/7", "source": "OpenGovernmentData"}}, {"type": "node", "id": 6789669412, "lat": 15.5114832, "lon": 80.039008, "tags": {"addr:district": "Prakasam", "addr:full": "Power Office Road, Lambadi Donka,Ongole", "addr:postcode": "523002", "addr:state": "Andhra Pradesh", "amenity": "hospital", "contact:phone": "224545", "name": "Aneesh Kidney Centre", "opening_hours": "24/7", "source": "OpenGovernmentData"}}, {"type": "node", "id": 6801323245, "lat": 15.5118463, "lon": 80.040231, "tags": {"addr:district": "Prakasam", "addr:full": "Sundaraiah Bhavan Road, Kurnool Road, Ongole", "addr:postcode": "523002", "addr:state": "Andhra Pradesh", "amenity": "hospital", "healthcare": "hospital", "name": "Srimannarayana Eye Hospital", "source": "OpenGovernmentData"}}, {"type": "node", "id": 6801375159, "lat": 15.5110968, "lon": 80.0396115, "tags": {"addr:district": "Prakasam", "addr:full": "H.No: 20 - 7 - 61, Sundhariha Bhavan Road", "addr:postcode": "523002", "addr:state": "Andhra Pradesh", "amenity": "hospital", "name": "Sai Nursing Home", "source": "OpenGovernmentData"}}, {"type": "node", "id": 6804712127, "lat": 15.5145045, "lon": 80.0435248, "tags": {"addr:district": "Prakasam", "addr:full": "H.No: 60 Feet Road, Ongole, 60 Feet Road, Ongole", "addr:postcode": "523002", "addr:state": "Andhra Pradesh", "amenity": "hospital", "contact:mobile": "7382299540, 533, 534", "contact:phone": "8592234419", "fax": "08592 282069", "name": "Amrutha Heart Hospital", "opening_hours": "24/7", "source": "OpenGovernmentData", "website": "http://amruthahearthospital.co.in/"}}, {"type": "node", "id": 6804824297, "lat": 15.5119762, "lon": 80.0395417, "tags": {"addr:district": "Prakasam", "addr:full": "Sundaraiah Bhavan Road, Near Rtc Road, Kurnool Road, Ongole", "addr:postcode": "523002", "addr:state": "Andhra Pradesh", "amenity": "hospital", "contact:phone": "234221", "name": "Srinivasa Hospital", "source": "OpenGovernmentData"}}, {"type": "node", "id": 6806893083, "lat": 15.514812, "lon": 80.0442329, "tags": {"addr:district": "Prakasam", "addr:full": "H.No: 3-307, 60 Feet Road, Satyanarayabpuram, Opposite Rtc Bus Depot", "addr:postcode": "523002", "addr:state": "Andhra Pradesh", "amenity": "hospital", "name": "Vijaya Hospital", "source": "OpenGovernmentData"}}, {"type": "node", "id": 7802944764, "lat": 15.5154401, "lon": 80.0440693, "tags": {"addr:district": "Prakasam", "addr:full": "Sixty Feet Road, Venkateswara Nagar, Ongole", "addr:postcode": "523001", "addr:state": "Andhra Pradesh", "amenity": "hospital", "name": "Vijayasree Hospital", "source": "Local Knowledge"}}, {"type": "node", "id": 7802944765, "lat": 15.512173, "lon": 80.0356313, "tags": {"addr:district": "Prakasam", "addr:full": "Brundavan Nagar, Pandaripuram, Ongole", "addr:postcode": "523001", "addr:state": "Andhra Pradesh", "amenity": "hospital", "name": "Chaitanya Hospital", "source": "Local Knowledge"}}, {"type": "node", "id": 7802944766, "lat": 15.513968, "lon": 80.042347, "tags": {"addr:district": "Prakasam", "addr:full": "Venkateswara Nagar, Ongole", "addr:postcode": "523001", "addr:state": "Andhra Pradesh", "amenity": "hospital", "name": "Veeraiah Chowdary Hospital", "source": "Local Knowledge"}}, {"type": "node", "id": 7802944767, "lat": 15.51166, "lon": 80.0406, "tags": {"addr:district": "Prakasam", "addr:full": "Ongole", "addr:postcode": "523001", "addr:state": "Andhra Pradesh", "amenity": "hospital", "name": "KIMS Hospital", "source": "Local Knowledge"}}, {"type": "node", "id": 7802944769, "lat": 15.511867, "lon": 80.040505, "tags": {"addr:district": "Prakasam", "addr:full": "Pandaripuram, Ongole", "addr:postcode": "523001", "addr:state": "Andhra Pradesh", "amenity": "hospital", "name": "Prakasam Super Speciality Hospital", "source": "Local Knowledge"}}, {"type": "node", "id": 7802944770, "lat": 15.5124542, "lon": 80.0394561, "tags": {"addr:district": "Prakasam", "addr:full": "Pandaripuram, Ongole", "addr:postcode": "523001", "addr:state": "Andhra Pradesh", "amenity": "hospital", "name": "Kiran Neuro & Ortho Hospital", "source": "Local Knowledge"}}, {"type": "node", "id": 7802944771, "lat": 15.512183, "lon": 80.035351, "tags": {"addr:district": "Prakasam", "addr:full": "Ongole", "addr:postcode": "523001", "addr:state": "Andhra Pradesh", "amenity": "hospital", "name": "Sriram Super Speciality Hospital", "source": "Local Knowledge"}}, {"type": "node", "id": 7802944772, "lat": 15.513961, "lon": 80.043853, "tags": {"addr:district": "Prakasam", "addr:full": "Venkateswara Nagar, Ongole", "addr:postcode": "523001", "addr:state": "Andhra Pradesh", "amenity": "hospital", "name": "Vijaya Skin Hospital", "source": "Local Knowledge"}}, {"type": "node", "id": 7802944773, "lat": 15.513578, "lon": 80.043437, "tags": {"addr:district": "Prakasam", "addr:full": "Sixty Feet Road, Venkateswara Nagar, Ongole", "addr:postcode": "523001", "addr:state": "Andhra Pradesh", "amenity": "hospital", "name": "Aravind Skin Hospital", "source": "Local Knowledge"}}, {"type": "node", "id": 7802944774, "lat": 15.5039047, "lon": 80.0382208, "tags": {"addr:district": "Prakasam", "addr:full": "Lawyer Pet, Ongole", "addr:postcode": "523001", "addr:state": "Andhra Pradesh", "amenity": "hospital", "name": "Sarojini Hospital", "source": "Local Knowledge", "wheelchair": "limited"}}, {"type": "node", "id": 7802944775, "lat": 15.5137807, "lon": 80.0438219, "tags": {"addr:district": "Prakasam", "addr:full": "Venkateswara Nagar, Ongole", "addr:postcode": "523001", "addr:state": "Andhra Pradesh", "amenity": "hospital", "name": "Indu Hospital", "source": "Local Knowledge"}}, {"type": "node", "id": 7802944776, "lat": 15.5143968, "lon": 80.0440583, "tags": {"addr:district": "Prakasam", "addr:full": "Sixty Feet Road, Venkateswara Nagar, Ongole", "addr:postcode": "523001", "addr:state": "Andhra Pradesh", "amenity": "hospital", "name": "Anjani Super Speciality Hospital", "source": "Local Knowledge"}}, {"type": "node", "id": 7802944778, "lat": 15.511597, "lon": 80.040526, "tags": {"addr:district": "Prakasam", "addr:full": "Pandaripuram, Ongole", "addr:postcode": "523001", "addr:state": "Andhra Pradesh", "amenity": "hospital", "name": "Pandu Children's And Multi Speciality Hospital", "source": "Local Knowledge"}}, {"type": "node", "id": 7802944779, "lat": 15.5147127, "lon": 80.0402763, "tags": {"addr:district": "Prakasam", "addr:full": "Venkateswara Nagar, Ongole", "addr:postcode": "523001", "addr:state": "Andhra Pradesh", "amenity": "hospital", "name": "Dr. Sudhakar Reddy Hospital", "source": "Local Knowledge"}}, {"type": "node", "id": 7802944780, "lat": 15.5145301, "lon": 80.0368602, "tags": {"addr:district": "Prakasam", "addr:full": "Pandaripuram, Ongole", "addr:postcode": "523001", "addr:state": "Andhra Pradesh", "amenity": "hospital", "name": "Chimakurthy Eye Hospital", "source": "Local Knowledge"}}, {"type": "node", "id": 7802944781, "lat": 15.514344, "lon": 80.044019, "tags": {"addr:district": "Prakasam", "addr:full": "Venkateswara Nagar, Ongole", "addr:postcode": "523001", "addr:state": "Andhra Pradesh", "amenity": "hospital", "name": "CVR Hospital", "source": "Local Knowledge"}}, {"type": "node", "id": 7802944783, "lat": 15.5140968, "lon": 80.0424397, "tags": {"addr:district": "Prakasam", "addr:full": "Venkateswara Nagar, Ongole", "addr:postcode": "523001", "addr:state": "Andhra Pradesh", "amenity": "hospital", "name": "Aswini Children Hospital", "source": "Local Knowledge"}}, {"type": "node", "id": 7802944784, "lat": 15.5151989, "lon": 80.0444147, "tags": {"addr:district": "Prakasam", "addr:full": "SN Puram, Ongole", "addr:postcode": "523001", "addr:state": "Andhra Pradesh", "amenity": "hospital", "name": "Saiveena Mother & Children's Hospital", "source": "Local Knowledge"}}, {"type": "node", "id": 7802944785, "lat": 15.5116108, "lon": 80.0360016, "tags": {"addr:district": "Prakasam", "addr:full": "Brundavan Nagar, Pandaripuram, Ongole", "addr:postcode": "523001", "addr:state": "Andhra Pradesh", "amenity": "hospital", "name": "Sri Karthikeya Cardiac Centre", "source": "Local Knowledge"}}, {"type": "node", "id": 7802944786, "lat": 15.505581, "lon": 80.025902, "tags": {"addr:district": "Prakasam", "addr:full": "Siva Prasad Colony, Ongole", "addr:postcode": "523001", "addr:state": "Andhra Pradesh", "amenity": "hospital", "name": "Ntr Pranteeya Hospital", "source": "Local Knowledge"}}, {"type": "node", "id": 7802944787, "lat": 15.5114652, "lon": 80.0405012, "tags": {"addr:district": "Prakasam", "addr:full": "Pandaripuram, Ongole", "addr:postcode": "523001", "addr:state": "Andhra Pradesh", "amenity": "hospital", "name": "Lipo Hospitals", "source": "Local Knowledge"}}, {"type": "node", "id": 7802944789, "lat": 15.5129961, "lon": 80.0435291, "tags": {"addr:district": "Prakasam", "addr:full": "Venkateswara Nagar, Ongole", "addr:postcode": "523001", "addr:state": "Andhra Pradesh", "amenity": "hospital", "name": "Vinay Skin Hospital", "source": "Local Knowledge"}}, {"type": "node", "id": 7802944790, "lat": 15.5037646, "lon": 80.0402531, "tags": {"addr:district": "Prakasam", "addr:full": "Lawyer Pet, Ongole", "addr:postcode": "523001", "addr:state": "Andhra Pradesh", "amenity": "hospital", "name": "Municipal Ayurveda Hospital", "source": "Local Knowledge"}}, {"type": "node", "id": 7802944792, "lat": 15.5147151, "lon": 80.0414917, "tags": {"addr:district": "Prakasam", "addr:full": "Satyanarayana Puram, Venkateswara Nagar, Ongole", "addr:postcode": "523001", "addr:state": "Andhra Pradesh", "amenity": "hospital", "name": "Sri Sharada Children's Hospital", "source": "Local Knowledge"}}, {"type": "node", "id": 7802944793, "lat": 15.516219, "lon": 80.039664, "tags": {"addr:district": "Prakasam", "addr:full": "Venkateswara Nagar, Ongole", "addr:postcode": "523001", "addr:state": "Andhra Pradesh", "amenity": "hospital", "name": "Royal Children Hospital", "source": "Local Knowledge"}}, {"type": "node", "id": 7802944794, "lat": 15.499594, "lon": 80.0429239, "tags": {"addr:district": "Prakasam", "addr:full": "Jakrama Nagar, Devuni Cheru, Ongole", "addr:postcode": "523001", "addr:state": "Andhra Pradesh", "amenity": "hospital", "name": "Suman Physiotherapy & Rehabilitation Center", "source": "Local Knowledge"}}, {"type": "node", "id": 7802944798, "lat": 15.5103173, "lon": 80.0391195, "tags": {"addr:district": "Prakasam", "addr:full": "Ongole", "addr:postcode": "523001", "addr:state": "Andhra Pradesh", "amenity": "hospital", "check_date": "2024-03-30", "healthcare": "hospital", "name": "Adarsh Orthopaedic Hospital ongole", "source": "Local Knowledge"}}, {"type": "node", "id": 7802944800, "lat": 15.511283, "lon": 80.039628, "tags": {"addr:district": "Prakasam", "addr:full": "Brundavan Nagar, Pandaripuram, Ongole", "addr:postcode": "523001", "addr:state": "Andhra Pradesh", "amenity": "hospital", "check_date": "2024-03-30", "healthcare": "hospital", "name": "Ravi Teja Chest Hospital ongole", "source": "Local Knowledge"}}, {"type": "node", "id": 7802944804, "lat": 15.511729, "lon": 80.0393945, "tags": {"addr:district": "Prakasam", "addr:full": "Brundavan Nagar, Pandaripuram, Ongole", "addr:postcode": "523001", "addr:state": "Andhra Pradesh", "amenity": "hospital", "name": "Vasudha Kalyan Multi Speciality Hospital", "source": "Local Knowledge"}}, {"type": "node", "id": 7802944805, "lat": 15.5104327, "lon": 80.0391376, "tags": {"addr:district": "Prakasam", "addr:full": "Brundavan Nagar, Pandaripuram, Ongole", "addr:postcode": "523001", "addr:state": "Andhra Pradesh", "amenity": "hospital", "healthcare": "hospital", "name": "Gummadi Chest Hospital ongole", "source": "Local Knowledge"}}, {"type": "node", "id": 7802944807, "lat": 15.5120808, "lon": 80.0352193, "tags": {"addr:district": "Prakasam", "addr:full": "Brundavan Nagar, Pandaripuram, Ongole", "addr:postcode": "523001", "addr:state": "Andhra Pradesh", "amenity": "hospital", "name": "Homeo Hospital", "source": "Local Knowledge"}}, {"type": "node", "id": 7802944808, "lat": 15.5114565, "lon": 80.0401607, "tags": {"addr:district": "Prakasam", "addr:full": "Pandaripuram, Ongole", "addr:postcode": "523001", "addr:state": "Andhra Pradesh", "amenity": "hospital", "check_date": "2024-03-30", "name": "Lakshmi Superspeciality Hospital", "source": "Local Knowledge"}}, {"type": "node", "id": 7802944812, "lat": 15.5035304, "lon": 80.0412962, "tags": {"addr:district": "Prakasam", "addr:full": "Devuni Cheru, Ongole", "addr:postcode": "523001", "addr:state": "Andhra Pradesh", "amenity": "hospital", "name": "Sri Datta Sai Hospital", "source": "Local Knowledge"}}, {"type": "node", "id": 7802944813, "lat": 15.5113108, "lon": 80.040047, "tags": {"addr:district": "Prakasam", "addr:full": "Pandaripuram, Ongole", "addr:postcode": "523001", "addr:state": "Andhra Pradesh", "amenity": "hospital", "healthcare": "hospital", "name": "Bharathi Nursing Home ongole", "source": "Local Knowledge"}}, {"type": "node", "id": 7802944815, "lat": 15.5138596, "lon": 80.0438655, "tags": {"addr:district": "Prakasam", "addr:full": "Satyanarayanapuram, Ongole", "addr:postcode": "523001", "addr:state": "Andhra Pradesh", "amenity": "hospital", "name": "Dr. B.V.L Narayana Memorial Maternity Hospital", "source": "Local Knowledge"}}, {"type": "node", "id": 7802944816, "lat": 15.511458, "lon": 80.039767, "tags": {"addr:district": "Prakasam", "addr:full": "Brundavan Nagar, Pandaripuram, Ongole", "addr:postcode": "523001", "addr:state": "Andhra Pradesh", "amenity": "hospital", "name": "Sairupa Sugar Hospital", "source": "Local Knowledge"}}, {"type": "node", "id": 7802944818, "lat": 15.5124165, "lon": 80.0462701, "tags": {"addr:district": "Prakasam", "addr:full": "Venkateswara Nagar, Ongole", "addr:postcode": "523001", "addr:state": "Andhra Pradesh", "amenity": "hospital", "name": "Kamala Nursing Hospital", "source": "Local Knowledge"}}, {"type": "node", "id": 7802944820, "lat": 15.503707, "lon": 80.040827, "tags": {"addr:district": "Prakasam", "addr:full": "Bandla Metla, Ongole", "addr:postcode": "523001", "addr:state": "Andhra Pradesh", "amenity": "hospital", "name": "Pushpa Clinic & Nursing Home", "source": "Local Knowledge"}}, {"type": "node", "id": 7802944821, "lat": 15.5112399, "lon": 80.0369092, "tags": {"addr:district": "Prakasam", "addr:full": "Brundavan Nagar, Pandaripuram, Ongole", "addr:postcode": "523001", "addr:state": "Andhra Pradesh", "amenity": "hospital", "name": "Ongole Children's Hospital", "source": "Local Knowledge"}}, {"type": "node", "id": 7802944822, "lat": 15.512161, "lon": 80.0392971, "tags": {"addr:district": "Prakasam", "addr:full": "Brundavan Nagar, Pandaripuram, Ongole", "addr:postcode": "523001", "addr:state": "Andhra Pradesh", "amenity": "hospital", "name": "Amma Children's Hospital", "source": "Local Knowledge"}}, {"type": "node", "id": 7802944823, "lat": 15.5042463, "lon": 80.0387417, "tags": {"addr:district": "Prakasam", "addr:full": "Lawyer Pet, Ongole", "addr:postcode": "523001", "addr:state": "Andhra Pradesh", "amenity": "hospital", "name": "Aruna Nursing home", "source": "Local Knowledge"}}, {"type": "node", "id": 7802944824, "lat": 15.508714, "lon": 80.04214, "tags": {"addr:district": "Prakasam", "addr:full": "Pandaripuram, Ongole", "addr:postcode": "523001", "addr:state": "Andhra Pradesh", "amenity": "hospital", "name": "Ongole Children's Hospital", "source": "Local Knowledge"}}, {"type": "node", "id": 7802944826, "lat": 15.5036144, "lon": 80.0401169, "tags": {"addr:district": "Prakasam", "addr:full": "Lawyer Pet, Ongole", "addr:postcode": "523001", "addr:state": "Andhra Pradesh", "amenity": "hospital", "name": "Gosha Hospital", "source": "Local Knowledge"}}, {"type": "node", "id": 7802944827, "lat": 15.4996468, "lon": 80.0437844, "tags": {"addr:district": "Prakasam", "addr:full": "Zachariah Nagar, Ongole", "addr:postcode": "523001", "addr:state": "Andhra Pradesh", "amenity": "hospital", "name": "Zachariah's Hospital", "source": "Local Knowledge"}}, {"type": "node", "id": 7802944828, "lat": 15.505687, "lon": 80.038612, "tags": {"addr:district": "Prakasam", "addr:full": "Lawyer Pet, Ongole", "addr:postcode": "523001", "addr:state": "Andhra Pradesh", "amenity": "hospital", "name": "Rushi Ayurvedic Hospital", "source": "Local Knowledge"}}, {"type": "node", "id": 7802944830, "lat": 15.5164364, "lon": 80.0448813, "tags": {"addr:district": "Prakasam", "addr:full": "Sathyanarayana Puram, Ongole", "addr:postcode": "523001", "addr:state": "Andhra Pradesh", "amenity": "hospital", "name": "Sai Lekhana Nursing Home", "source": "Local Knowledge"}}, {"type": "node", "id": 7802944832, "lat": 15.5111166, "lon": 80.0386156, "tags": {"addr:district": "Prakasam", "addr:full": "Ongole", "addr:postcode": "523001", "addr:state": "Andhra Pradesh", "amenity": "hospital", "name": "Siri Hospitals", "source": "Local Knowledge"}}, {"type": "node", "id": 7802944833, "lat": 15.515715, "lon": 80.035172, "tags": {"addr:district": "Prakasam", "addr:full": "Ongole", "addr:postcode": "523001", "addr:state": "Andhra Pradesh", "amenity": "hospital", "name": "Nature Cures Hospital", "source": "Local Knowledge"}}, {"type": "node", "id": 7802944835, "lat": 15.5142307, "lon": 80.0439782, "tags": {"addr:district": "Prakasam", "addr:full": "Satyanarayana Puram, Venkateswara Nagar, Ongole", "addr:postcode": "523001", "addr:state": "Andhra Pradesh", "amenity": "hospital", "name": "Sreshta Children Hospital", "source": "Local Knowledge"}}, {"type": "node", "id": 7802944836, "lat": 15.5141778, "lon": 80.0393325, "tags": {"addr:district": "Prakasam", "addr:full": "Venkateswara Nagar, Ongole", "addr:postcode": "523001", "addr:state": "Andhra Pradesh", "amenity": "hospital", "name": "Sri Madhavi Hospital", "source": "Local Knowledge"}}, {"type": "node", "id": 7802944837, "lat": 15.506871, "lon": 80.0408291, "tags": {"addr:district": "Prakasam", "addr:full": "Lawyer Pet, Ongole", "addr:postcode": "523001", "addr:state": "Andhra Pradesh", "amenity": "hospital", "name": "Sri Sai Dheeraj Nursing Home", "source": "Local Knowledge"}}, {"type": "node", "id": 7802944838, "lat": 15.5032221, "lon": 80.0359054, "tags": {"addr:district": "Prakasam", "addr:full": "Gaddalagunta, Ongole", "addr:postcode": "523001", "addr:state": "Andhra Pradesh", "amenity": "hospital", "name": "Sri Venkateswara Wellness Hospital", "source": "Local Knowledge"}}, {"type": "node", "id": 7802944839, "lat": 15.5109713, "lon": 80.0373234, "tags": {"addr:district": "Prakasam", "addr:full": "Brundavan Nagar, Pandaripuram, Ongole", "addr:postcode": "523001", "addr:state": "Andhra Pradesh", "amenity": "hospital", "name": "AIMS Hospital", "source": "Local Knowledge"}}, {"type": "node", "id": 7802944840, "lat": 15.509767, "lon": 80.0335724, "tags": {"addr:district": "Prakasam", "addr:full": "Pandaripuram, Ongole", "addr:postcode": "523001", "addr:state": "Andhra Pradesh", "amenity": "hospital", "name": "Kaki Hospital", "source": "Local Knowledge"}}, {"type": "node", "id": 7802944841, "lat": 15.5052671, "lon": 80.0514367, "tags": {"addr:district": "Prakasam", "addr:full": "Ongole", "addr:postcode": "523001", "addr:state": "Andhra Pradesh", "amenity": "hospital", "name": "Sai Paralysis Hospital", "source": "Local Knowledge"}}, {"type": "node", "id": 7802944847, "lat": 15.5033656, "lon": 80.0422061, "tags": {"addr:district": "Prakasam", "addr:full": "Seetha Ram Puram, Gaddalagunta, Ongole", "addr:postcode": "523001", "addr:state": "Andhra Pradesh", "amenity": "hospital", "name": "Athreya Ayurvedic Speciality Hospital", "source": "Local Knowledge"}}, {"type": "node", "id": 8895083129, "lat": 15.5036312, "lon": 80.0416866, "tags": {"addr:district": "Prakasam", "addr:full": "H.No: 5-1/3, Rajapanagal Road", "addr:postcode": "523001", "addr:state": "Andhra Pradesh", "amenity": "hospital", "contact:phone": "85922232665", "name": "Sundara Raja Nursing Home", "source": "OpenGovernmentData"}}, {"type": "node", "id": 12082870705, "lat": 15.500882, "lon": 80.0530925}, {"type": "node", "id": 12082870706, "lat": 15.500846, "lon": 80.0533936}, {"type": "node", "id": 12082870707, "lat": 15.5006614, "lon": 80.0533563}, {"type": "node", "id": 12082870708, "lat": 15.5007765, "lon": 80.0530863}, {"type": "node", "id": 12082870709, "lat": 15.5008216, "lon": 80.0531114, "tags": {"addr:district": "Prakasam", "addr:postcode": "523001", "amenity": "hospital", "healthcare": "hospital", "name": "Joy Hospital"}}, {"type": "node", "id": 12092861101, "lat": 15.5008303, "lon": 80.0532278, "tags": {"addr:postcode": "523001", "addr:street": "MRO Office road", "amenity": "hospital", "name": "Joy Hospital", "opening_hours": "24/7", "phone": "09949088280", "website": "http://joyhospital.in"}}, {"type": "node", "id": 12596454775, "lat": 15.5113164, "lon": 80.0419629, "tags": {"amenity": "hospital", "healthcare": "hospital", "name": "Aluri Multispeciality Hospital"}}, {"type": "node", "id": 12596495884, "lat": 15.511401, "lon": 80.0408215, "tags": {"amenity": "hospital", "healthcare": "hospital", "name": "SRI PRASANTHI HOSPITAL AND TEST TUBE BABY CENTRE ONGOLE"}}, {"type": "node", "id": 12597197765, "lat": 15.5112795, "lon": 80.0398725, "tags": {"amenity": "hospital", "healthcare": "hospital", "name": "ADITHYA GENERAL HOSPITAL ONGOLE"}}, {"type": "node", "id": 12597526344, "lat": 15.512346, "lon": 80.04029, "tags": {"amenity": "hospital", "healthcare": "hospital", "name": "Pulmo Care Hospitals"}}, {"type": "node", "id": 12597531762, "lat": 15.5123604, "lon": 80.0404563, "tags": {"amenity": "hospital", "healthcare": "hospital", "name": "PUNNAMI HOSPITAL"}}, {"type": "node", "id": 12597536178, "lat": 15.5114136, "lon": 80.0402368, "tags": {"amenity": "hospital", "healthcare": "hospital", "name": "Pandu Children and Multispecialty Hospital"}}, {"type": "node", "id": 12597545418, "lat": 15.5122866, "lon": 80.040007, "tags": {"amenity": "hospital", "healthcare": "hospital", "name": "Santhi Skin and Children\u2019s Hospital"}}, {"type": "node", "id": 12597548367, "lat": 15.5113371, "lon": 80.0399155, "tags": {"amenity": "hospital", "healthcare": "hospital", "name": "Krishnachaitanya Hospital ongole"}}, {"type": "node", "id": 12597556256, "lat": 15.51177, "lon": 80.0403918, "tags": {"amenity": "hospital", "healthcare": "hospital", "name": "Prakasam Super Speciality Hospital"}}, {"type": "node", "id": 12597579669, "lat": 15.511536, "lon": 80.0400444, "tags": {"amenity": "hospital", "healthcare": "hospital", "name": "SRI SURYA SUPER SPECIALITY HOSPITAL"}}, {"type": "node", "id": 12597580975, "lat": 15.5121813, "lon": 80.0402527, "tags": {"amenity": "hospital", "healthcare": "hospital", "name": "APIC Hospital - Best Diabetes & General Hospital in Ongole |Female General Physician |Fever Treatment"}}, {"type": "node", "id": 12597584724, "lat": 15.5114883, "lon": 80.0398286, "tags": {"amenity": "hospital", "healthcare": "hospital", "name": "Sai sashini Multi-speciality hospital"}}, {"type": "node", "id": 12597589502, "lat": 15.5114298, "lon": 80.0395867, "tags": {"amenity": "hospital", "healthcare": "hospital", "name": "Ravi Teja Chest Hospital"}}, {"type": "node", "id": 12597590628, "lat": 15.5114325, "lon": 80.0397175, "tags": {"amenity": "hospital", "healthcare": "hospital", "name": "Sairupa Sugar Hospital Footcare & Thyroid center ongole"}}, {"type": "way", "id": 1304627825, "nodes": [12082870705, 12082870706, 12082870707, 12082870708, 12082870705], "tags": {"amenity": "hospital", "healthcare": "hospital"}}]}